{"version": 0.6, "generator": "Overpass API 0.7.59 e21c39fe", "osm3s": {"timestamp_osm_base": "2022-12-29T11:06:54Z", "copyright": "The data included in this document is from www.openstreetmap.org. The data is made available under ODbL."}, "elements": [{"type": "node", "id": 60062502, "lat": 60.167247, "lon": 24.9242236, "tags": {"addr:city": "Helsinki", "addr:country": "FI", "addr:housenumber": "12", "addr:postcode": "00180", "addr:street": "Lapinlahdenkatu", "amenity": "restaurant", "cuisine": "japanese", "diet:halal": "no", "diet:kosher": "no", "name": "Kabuki", "payment:credit_cards": "yes", "payment:debit_cards": "yes", "phone": "+358 9 694 9446", "website": "http://www.kabuki.fi/", "wheelchair": "no"}}, {"type": "node", "id": 62965963, "lat": 60.1693924, "lon": 24.9329881, "tags": {"amenity": "restaurant", "cuisine": "fusion", "email": "info@fusion.fi", "facebook": "https://www.facebook.com/profile.php?id=100086180344535", "name": "Restaurant & Bar Fusion", "opening_hours": "Mo-Th 11-22; Fr-Sa 11-02; Su 12-20", "payment:credit_cards": "yes", "payment:debit_cards": "yes", "phone": "+358 50 381 2378", "short_name": "Fusion;Restaurant Fusion", "start_date": "2022-10-05", "toilets:wheelchair": "yes", "website": "https://fusion.fi", "wheelchair": "yes"}}, {"type": "node", "id": 76617692, "lat": 60.1678064, "lon": 24.9291254, "tags": {"addr:city": "Helsinki", "addr:country": "FI", "amenity": "restaurant", "diet:halal": "no", "diet:kosher": "no", "name": "Johan Ludvig"}}, {"type": "node", "id": 76624339, "lat": 60.1650301, "lon": 24.9320499, "tags": {"addr:city": "Helsinki", "addr:country": "FI", "addr:housenumber": "38", "addr:postcode": "00120", "addr:street": "Albertinkatu", "amenity": "restaurant", "cuisine": "japanese", "diet:halal": "no", "diet:kosher": "no", "name": "Shinobi", "payment:credit_cards": "yes", "payment:debit_cards": "yes", "website": "https://www.shinobi.fi/"}}, {"type": "node", "id": 76624351, "lat": 60.1652785, "lon": 24.9295242, "tags": {"addr:city": "Helsinki", "addr:country": "FI", "addr:street": "Eerikinkatu", "amenity": "restaurant", "cuisine": "mexican", "delivery:covid19": "only", "diet:halal": "no", "diet:kosher": "no", "name": "Pueblo", "opening_hours:covid19": "Mo-Sa 11:00-21:30; Su 11:00-17:00", "payment:credit_cards": "yes", "payment:debit_cards": "yes", "phone": "+358 44 2444022", "takeaway:covid19": "only", "website": "https://pueblobar.fi/"}}, {"type": "node", "id": 77819321, "lat": 60.1608409, "lon": 24.9263418}, {"type": "node", "id": 89074039, "lat": 60.1626811, "lon": 24.9353827, "tags": {"addr:city": "Helsinki", "addr:country": "FI", "addr:housenumber": "30", "addr:postcode": "00120", "addr:street": "Albertinkatu", "amenity": "restaurant", "cuisine": "italian", "diet:halal": "no", "diet:kosher": "no", "name": "Papa Albert", "opening_hours": "Mo-Th 10:00-14:00, 17:30-22:00; Fr 11:00-23:00; Sa 16:00-23:00", "payment:credit_cards": "yes", "payment:debit_cards": "yes", "website": "https://raflaamo.fi/fi/helsinki/ravintola-papa-albert", "wheelchair": "yes"}}, {"type": "node", "id": 150983567, "lat": 60.1674629, "lon": 24.9339272}, {"type": "node", "id": 150983568, "lat": 60.1675284, "lon": 24.9341162}, {"type": "node", "id": 151006260, "lat": 60.1672949, "lon": 24.9365563, "tags": {"addr:city": "Helsinki", "addr:country": "FI", "addr:housenumber": "25", "addr:postcode": "00100", "addr:street": "Annankatu", "amenity": "restaurant", "diet:halal": "no", "diet:kosher": "no", "diet:vegetarian": "yes", "name": "Ravintola China", "name:fi": "Ravintola China", "name:zh": "\u4e2d\u570b\u6a13\u9152\u5bb6", "opening_hours": "Mo-Fr 11:00-23:00; Sa-Su 12:00-23:00; PH off", "payment:credit_cards": "yes", "payment:debit_cards": "yes", "short_name": "China", "website": "http://www.ravintolachina.fi", "wheelchair": "limited"}}, {"type": "node", "id": 151006483, "lat": 60.164867, "lon": 24.9381002, "tags": {"addr:city": "Helsinki", "addr:country": "FI", "addr:housenumber": "7", "addr:postcode": "00120", "addr:street": "Bulevardi", "amenity": "restaurant", "diet:halal": "no", "diet:kosher": "no", "name": "Tony's deli + Street Bar", "payment:credit_cards": "yes", "payment:debit_cards": "yes", "website": "https://www.tonysdeli.fi/"}}, {"type": "node", "id": 151006932, "lat": 60.1651499, "lon": 24.9356242, "tags": {"addr:city": "Helsinki", "addr:country": "FI", "addr:housenumber": "30", "addr:postcode": "00120", "addr:street": "Fredrikinkatu", "amenity": "restaurant", "cuisine": "sushi", "diet:halal": "no", "diet:kosher": "no", "name": "Haru Sushi", "opening_hours": "Mo-Fr 11:00-21:00; Sa 12:00-21:00; Su 13:00-21:00", "payment:credit_cards": "yes", "payment:debit_cards": "yes", "website": "https://www.facebook.com/Haru-sushi-1438609973105788/"}}, {"type": "node", "id": 151007074, "lat": 60.1646178, "lon": 24.9338521, "tags": {"addr:city": "Helsinki", "addr:country": "FI", "addr:housenumber": "22", "addr:postcode": "00120", "addr:street": "L\u00f6nnrotinkatu", "amenity": "restaurant", "cuisine": "japanese", "diet:halal": "no", "diet:kosher": "no", "name": "Koto", "payment:credit_cards": "yes", "payment:debit_cards": "yes"}}, {"type": "node", "id": 228461937, "lat": 60.1672393, "lon": 24.9341989}, {"type": "node", "id": 248343226, "lat": 60.1638967, "lon": 24.9310853, "tags": {"addr:city": "Helsinki", "addr:country": "FI", "addr:housenumber": "33-35", "addr:postcode": "00180", "addr:street": "L\u00f6nnrotinkatu", "amenity": "restaurant", "cuisine": "chinese", "description": "Temporary closed till summer 2021, see Annankatu 29", "diet:halal": "no", "diet:kosher": "no", "name": "Mei Lin", "name:fi": "Mei Lin", "name:zh": "\u6885\u6797", "opening_hours": "Mo-Fr 11:00-22:00; Sa,Su 12:00-22:30", "payment:credit_cards": "yes", "payment:debit_cards": "yes", "website": "https://www.meilin-fi.com/", "wheelchair": "limited"}}, {"type": "node", "id": 267720951, "lat": 60.1629737, "lon": 24.9361875, "tags": {"addr:city": "Helsinki", "addr:country": "FI", "addr:housenumber": "33", "addr:street": "Uudenmaankatu", "amenity": "restaurant", "cuisine": "thai", "diet:halal": "no", "diet:kosher": "no", "diet:vegan": "yes", "diet:vegetarian": "yes", "name": "Kaow Thip", "opening_hours": "Tu-Fr 11:00-21:00; Sa,Su 12:00-21:00", "payment:credit_cards": "yes", "payment:debit_cards": "yes", "phone": "+35892784249"}}, {"type": "node", "id": 302568885, "lat": 60.1704434, "lon": 24.934, "tags": {"addr:city": "Helsinki", "addr:country": "FI", "addr:housenumber": "3", "addr:postcode": "00100", "addr:street": "Salomonkatu", "amenity": "restaurant", "contact:phone": "+358 45 6793388", "contact:website": "http://www.fujivillage.fi", "cuisine": "japanese", "diet:halal": "no", "diet:kosher": "no", "name": "Fuji Village", "opening_hours": "Mo-Fr 11:00-15:00; Mo-Fr 17:00-22:00; Sa-Su 12:00-22:00", "source": "survey"}}, {"type": "node", "id": 310151801, "lat": 60.1663657, "lon": 24.9373841, "tags": {"addr:city": "Helsinki", "addr:country": "FI", "addr:housenumber": "20", "addr:postcode": "00100", "addr:street": "Annankatu", "amenity": "restaurant", "cuisine": "mexican", "diet:halal": "no", "diet:kosher": "no", "name": "El Rey", "opening_hours": "Tu-Sa 17:00-23:00", "outdoor_seating": "no", "website": "http://www.elrey.fi/"}}, {"type": "node", "id": 311744871, "lat": 60.1662313, "lon": 24.934114, "tags": {"addr:city": "Helsinki", "addr:country": "FI", "addr:housenumber": "36", "addr:postcode": "00100", "addr:street": "Fredrikinkatu", "amenity": "restaurant", "cuisine": "noodle", "name": "Noodle Story", "opening_hours": "Mo-Fr 11:00-21:00; Sa-Su 12:00-21:00", "phone": "+358 44 9898941", "website": "https://www.noodlestory.fi/"}}, {"type": "node", "id": 316006099, "lat": 60.1608211, "lon": 24.9265729}, {"type": "node", "id": 316006100, "lat": 60.1608638, "lon": 24.926714}, {"type": "node", "id": 316006101, "lat": 60.1609786, "lon": 24.9267645}, {"type": "node", "id": 316006102, "lat": 60.1609621, "lon": 24.9269044}, {"type": "node", "id": 316006103, "lat": 60.1606943, "lon": 24.926805}, {"type": "node", "id": 316006104, "lat": 60.1607267, "lon": 24.9264862}, {"type": "node", "id": 316006105, "lat": 60.1607485, "lon": 24.9264917}, {"type": "node", "id": 316006106, "lat": 60.1607663, "lon": 24.9263114}, {"type": "node", "id": 319887586, "lat": 60.1674531, "lon": 24.9244236, "tags": {"addr:city": "Helsinki", "addr:country": "FI", "addr:housenumber": "29", "addr:postcode": "00180", "addr:street": "Lapinlahdenkatu", "amenity": "restaurant", "cuisine": "chinese", "diet:halal": "no", "diet:kosher": "no", "name": "Singapore", "payment:credit_cards": "yes", "payment:debit_cards": "yes", "wheelchair": "no"}}, {"type": "node", "id": 319887587, "lat": 60.167309, "lon": 24.9255287, "tags": {"addr:city": "Helsinki", "addr:country": "FI", "addr:housenumber": "25", "addr:postcode": "00180", "addr:street": "Lapinlahdenkatu", "amenity": "restaurant", "cuisine": "italian", "diet:halal": "no", "diet:kosher": "no", "name": "Zio Pepe", "payment:credit_cards": "yes", "payment:debit_cards": "yes"}}, {"type": "node", "id": 389078466, "lat": 60.1691694, "lon": 24.9390079, "tags": {"addr:city": "Helsinki", "addr:country": "FI", "addr:housename": "Forum", "addr:housenumber": "18", "addr:street": "Mannerheimintie", "amenity": "restaurant", "cuisine": "pizza", "diet:halal": "no", "diet:kosher": "no", "email": "info@classicpizza.fi", "level": "1", "name": "Classic Pizza", "opening_hours": "Mo-Th 10:30-22:00; Fr 10:30-24:00; Sa 11:00-24:00; Su 11:00-22:00", "payment:credit_cards": "yes", "payment:debit_cards": "yes", "phone": "+358 44 033 7609", "website": "https://classicpizza.fi/"}}, {"type": "node", "id": 408111943, "lat": 60.1662457, "lon": 24.9340908, "tags": {"addr:city": "Helsinki", "addr:country": "FI", "addr:housenumber": "36", "addr:postcode": "00100", "addr:street": "Fredrikinkatu", "address": "Fredrikinkatu 36", "amenity": "restaurant", "diet:halal": "no", "diet:kosher": "no", "name": "Fuku", "opening_hours": "Mo-Fr 11:00-15:00, 16:30-22:00; Sa 12:00-16:30, 17:00-22:00; Su 13:00-20:00", "payment:credit_cards": "yes", "payment:debit_cards": "yes", "website": "https://www.fukuhelsinki.com", "wheelchair": "limited"}}, {"type": "node", "id": 484268873, "lat": 60.1670915, "lon": 24.9325559, "tags": {"addr:city": "Helsinki", "addr:country": "FI", "addr:housenumber": "42", "addr:postcode": "00100", "addr:street": "Fredrikinkatu", "amenity": "restaurant", "diet:halal": "no", "diet:kosher": "no", "email": "freda@sushibar.fi", "name": "Sushibar + wine", "opening_hours": "Mo-Th 11:00-22:00; Fr 11:00-23:00; Sa 14:00-23:00; Su 14:00-21:00", "phone": "+358106668454", "website": "https://www.sushibar.fi/", "wheelchair": "no"}}, {"type": "node", "id": 528057805, "lat": 60.170973, "lon": 24.9333893, "tags": {"access:covid19": "no", "amenity": "restaurant", "delivery:covid19": "yes", "diet:halal": "no", "diet:kosher": "no", "diet:vegan": "yes", "diet:vegetarian": "yes", "drive_through:covid19": "no", "name": "Farang", "opening_hours": "Mo-Sa 12:00-20:00; Su 14:00-20:00", "opening_hours:covid19": "Mo-Sa 12:00-20:00; Su 14:00-20:00", "takeaway:covid19": "yes", "website": "https://www.farang.fi/"}}, {"type": "node", "id": 603767081, "lat": 60.166426, "lon": 24.934438, "tags": {"addr:city": "Helsinki", "addr:country": "FI", "addr:housenumber": "47", "addr:postcode": "00100", "addr:street": "Fredrikinkatu", "amenity": "restaurant", "cuisine": "nepalese", "diet:halal": "no", "diet:kosher": "no", "name": "Golden Leaf", "opening_hours": "Mo-Th 11:00-22:00; Fr 11:00-23:00; Sa 12:00-23:00; Su 12:00-22:00", "payment:credit_cards": "yes", "payment:debit_cards": "yes", "takeaway": "yes", "wheelchair": "yes"}}, {"type": "node", "id": 603767085, "lat": 60.1666427, "lon": 24.9340638, "tags": {"addr:city": "Helsinki", "addr:country": "FI", "addr:housenumber": "49", "addr:postcode": "00100", "addr:street": "Fredrikinkatu", "amenity": "restaurant", "cuisine": "asian", "delivery": "yes", "diet:halal": "no", "diet:kosher": "no", "email": "info@luckiefun.com", "name": "Luckiefun's Restaurant", "opening_hours": "Mo-Th 10:30-21:00; Fr 10:30-23:00; Sa 12:00-23:00; Su 12:00-21:00", "payment:credit_cards": "yes", "payment:debit_cards": "yes", "phone": "+358452184480", "url": "https://www.luckiefun.com", "wheelchair": "limited"}}, {"type": "node", "id": 603767090, "lat": 60.1661734, "lon": 24.942749, "tags": {"addr:city": "Helsinki", "addr:country": "FI", "addr:housenumber": "2-4", "addr:postcode": "00120", "addr:street": "Bulevardi", "amenity": "restaurant", "cuisine": "italian", "diet:halal": "no", "diet:kosher": "no", "name": "Toscanini", "opening_hours": "Mo-Fr 11:00-14:30,17:00-00:00; Sa 12:00-00:00; Su 17:00-23:00", "payment:credit_cards": "yes", "payment:debit_cards": "yes", "website": "https://www.toscanini.fi/", "wheelchair": "yes"}}, {"type": "node", "id": 615217034, "lat": 60.1682169, "lon": 24.9396892, "tags": {"addr:city": "Helsinki", "addr:country": "FI", "addr:housename": "Forum", "addr:housenumber": "1", "addr:postcode": "00100", "addr:street": "Kalevankatu", "amenity": "restaurant", "diet:halal": "no", "diet:kosher": "no", "email": "info@ravintolakiila.fi", "level": "1;2", "lunch:menu": "Mo-Fr 10:30-15:00", "name": "Kiila", "note": "brunch", "opening_hours": "Mo-Tu 07:00-22:00; We-Th 07:00-23:00; Fr 07:00-02:00; Sa 08:30-04:00; Su 09:00-21:00", "payment:credit_cards": "yes", "payment:debit_cards": "yes", "phone": "+358 40 511 8952", "reservation": "yes", "room": "yes", "website": "https://www.ravintolakiila.fi/", "wheelchair": "yes"}}, {"type": "node", "id": 622033235, "lat": 60.1665319, "lon": 24.9310498, "tags": {"addr:city": "Helsinki", "addr:country": "FI", "addr:postcode": "00180", "addr:street": "Lapinlahdenkatu", "amenity": "restaurant", "diet:halal": "no", "diet:kosher": "no", "name": "Krog Madame", "payment:credit_cards": "yes", "payment:debit_cards": "yes", "website": "https://madame.fi/"}}, {"type": "node", "id": 648237234, "lat": 60.165777, "lon": 24.9364743, "tags": {"access:covid19": "no", "addr:city": "Helsinki", "addr:country": "FI", "addr:housenumber": "13", "addr:postcode": "00120", "addr:street": "L\u00f6nnrotinkatu", "amenity": "restaurant", "contact:facebook": "https://www.facebook.com/NBRGR", "contact:phone": "+358 50 556 3367", "cuisine": "american", "delivery:covid19": "yes", "diet:halal": "no", "diet:kosher": "no", "diet:vegan": "yes", "diet:vegetarian": "yes", "indoor_seating": "yes", "name": "Naughty BRGR", "note": "brunch", "opening_hours": "Mo-Sa 11:00-22:00; Su 12:00-19:00", "opening_hours:brunch": "Sa-Su 09:00-14:00", "opening_hours:covid19": "Mo-Sa 11:00-21:30; Su 12:00-18:30", "outdoor_seating": "yes", "payment:credit_cards": "yes", "payment:debit_cards": "yes", "source": "survey", "takeaway:covid19": "yes", "toilets": "yes", "wheelchair": "no"}}, {"type": "node", "id": 648237235, "lat": 60.1661102, "lon": 24.9374005, "tags": {"addr:city": "Helsinki", "addr:country": "FI", "addr:housenumber": "9", "addr:postcode": "00120", "addr:street": "L\u00f6nnrotinkatu", "amenity": "restaurant", "cuisine": "mexican", "diet:halal": "no", "diet:kosher": "no", "name": "Chalupa", "opening_hours": "Mo-Fr 10:30-21:30; Sa,Su 11:30-21:30", "website": "http://chalupa.fi/"}}, {"type": "node", "id": 648237236, "lat": 60.1674957, "lon": 24.941438, "tags": {"addr:city": "Helsinki", "addr:housenumber": "10", "addr:postcode": "00100", "addr:street": "Mannerheimintie", "amenity": "restaurant", "diet:halal": "no", "diet:kosher": "no", "name": "Scandic Marski", "toilets:wheelchair": "yes", "website": "https://www.scandichotels.com/hotels/finland/helsinki/scandic-marski/restaurant-bar/restaurant", "wheelchair": "yes"}}, {"type": "node", "id": 648249321, "lat": 60.1645698, "lon": 24.932603, "tags": {"addr:city": "Helsinki", "addr:country": "FI", "addr:housenumber": "34", "addr:postcode": "00120", "addr:street": "Albertinkatu", "amenity": "restaurant", "diet:halal": "no", "diet:kosher": "no", "name": "Aleksanteri Lounge", "payment:credit_cards": "yes", "payment:debit_cards": "yes", "website": "https://www.raflaamo.fi/fi/helsinki/aleksanteri-lounge", "wheelchair": "limited"}}, {"type": "node", "id": 673606093, "lat": 60.166753, "lon": 24.9368036, "tags": {"addr:city": "Helsinki", "addr:country": "FI", "addr:housenumber": "22", "addr:postcode": "00100", "addr:street": "Annankatu", "amenity": "restaurant", "cuisine": "regional", "diet:halal": "no", "diet:kosher": "no", "name": "Lappi ravintola", "opening_hours": "Mo-Sa 12:00-00:00", "phone": "+358 9 645 550", "toilets:wheelchair": "yes", "website": "http://www.lappires.com/", "wheelchair": "yes"}}, {"type": "node", "id": 750013513, "lat": 60.1664253, "lon": 24.9256112, "tags": {"addr:city": "Helsinki", "addr:country": "FI", "addr:housenumber": "1", "addr:postcode": "00180", "addr:street": "Lastenkodinkuja", "amenity": "restaurant", "cuisine": "chinese", "diet:halal": "no", "diet:kosher": "no", "name": "Guangzhou garden"}}, {"type": "node", "id": 806783203, "lat": 60.1704928, "lon": 24.9344989, "tags": {"addr:city": "Helsinki", "addr:country": "FI", "addr:housenumber": "3", "addr:postcode": "00100", "addr:street": "Salomonkatu", "amenity": "restaurant", "contact:phone": "+358 9 3233200", "contact:website": "http://www.tangdynasty.fi/", "cuisine": "sushi", "diet:halal": "no", "diet:kosher": "no", "name": "Itsudemo", "source": "survey"}}, {"type": "node", "id": 903301977, "lat": 60.1646347, "lon": 24.9331951, "tags": {"addr:city": "Helsinki", "addr:country": "FI", "addr:housenumber": "25", "addr:postcode": "00180", "addr:street": "L\u00f6nnrotinkatu", "amenity": "restaurant", "capacity": "50", "cuisine": "nepalese", "diet:halal": "no", "diet:kosher": "no", "diet:vegan": "yes", "diet:vegetarian": "yes", "name": "Kantipur", "opening_hours": "Mo-Th 11:00-22:00; Fr 11:00-23:00; Sa 12:00-23:00; Su 12:00-22:00", "payment:credit_cards": "yes", "payment:debit_cards": "yes", "phone": "+358 9 694 0266", "smoking": "no", "takeaway": "yes", "website": "https://www.ravintolakantipur.fi/"}}, {"type": "node", "id": 962999975, "lat": 60.1629649, "lon": 24.933558, "tags": {"access:dog": "yes", "addr:city": "Helsinki", "addr:country": "FI", "addr:housenumber": "36", "addr:postcode": "00120", "addr:street": "Bulevardi", "amenity": "restaurant", "cuisine": "regional", "diet:halal": "no", "diet:kosher": "no", "name": "Kakkugalleria", "opening_hours": "Mo-Fr 9:00-18:00; Sa 10:00-16:00", "operator": "A&S Ravintolat", "payment:credit_cards": "yes", "payment:debit_cards": "yes", "phone": "+358974255544", "shop": "bakery", "smoking": "no", "website": "https://www.kakkugalleria.com/"}}, {"type": "node", "id": 1007873319, "lat": 60.1628893, "lon": 24.9290814, "tags": {"addr:city": "Helsinki", "amenity": "restaurant", "cuisine": "kebab", "diet:halal": "no", "diet:kosher": "no", "diet:vegan": "yes", "diet:vegetarian": "yes", "name": "D\u00f6ner Harju", "payment:credit_cards": "yes", "payment:debit_cards": "yes"}}, {"type": "node", "id": 1371731167, "lat": 60.1707387, "lon": 24.9323723, "tags": {"addr:city": "Helsinki", "addr:country": "FI", "addr:housenumber": "4", "addr:postcode": "00100", "addr:street": "Etel\u00e4inen Rautatiekatu", "amenity": "restaurant", "contact:website": "https://www.raflaamo.fi/fi/helsinki/bistro-manu", "diet:halal": "no", "diet:kosher": "no", "name": "Bistro Manu", "opening_hours": "Mo-Fr 12:00-22:30; Sa 15:00-22:30", "wheelchair": "limited"}}, {"type": "node", "id": 1371747504, "lat": 60.1678101, "lon": 24.9375974, "tags": {"addr:city": "Helsinki", "addr:country": "FI", "addr:housenumber": "30", "addr:postcode": "00100", "addr:street": "Yrj\u00f6nkatu", "alt_name": "Pho Viet Vietnamese Kitchen", "amenity": "restaurant", "cuisine": "vietnamese", "diet:halal": "no", "diet:kosher": "no", "name": "Ph\u1edf Vi\u1ec7t Vietnamese Kitchen", "opening_hours": "Mo-Sa 10:30-22:30; Su 12-22", "outdoor_seating": "yes", "payment:credit_cards": "yes", "payment:debit_cards": "yes"}}, {"type": "node", "id": 1375925295, "lat": 60.1621151, "lon": 24.9242485, "tags": {"addr:city": "Helsinki", "addr:country": "FI", "addr:housenumber": "3", "addr:postcode": "00180", "addr:street": "Ruoholahdenranta", "amenity": "restaurant", "cuisine": "italian", "diet:halal": "no", "diet:kosher": "no", "name": "Bistro Gimis", "operator": "Radisson Blu Seaside", "payment:credit_cards": "yes", "payment:debit_cards": "yes", "website": "https://www.s-kanava.fi/toimipaikka/bistro-gimis/3350815", "wheelchair": "yes"}}, {"type": "node", "id": 1377222625, "lat": 60.1664179, "lon": 24.9349746, "tags": {"addr:city": "Helsinki", "addr:country": "FI", "addr:housenumber": "21", "addr:postcode": "00100", "addr:street": "Kalevankatu", "amenity": "restaurant", "contact:email": "domoravintola@gmail.com", "contact:phone": "+358942890998", "contact:website": "https://domoravintola.fi/", "cuisine": "japanese", "diet:halal": "no", "diet:kosher": "no", "name": "Domo", "opening_hours": "Mo-Fr 11:00-14:30, Mo-Fr 17:00-21:00, Sa 12:00-21:30, Su off", "wheelchair": "limited"}}, {"type": "node", "id": 1377247132, "lat": 60.1636376, "lon": 24.9247454, "tags": {"addr:city": "Helsinki", "addr:country": "FI", "addr:housenumber": "43", "addr:postcode": "00180", "addr:street": "Eerikinkatu", "amenity": "restaurant", "contact:email": "kannas@kannas.fi", "contact:phone": "09-6944780", "contact:website": "http://www.kannas.fi/", "cuisine": "local", "diet:halal": "no", "diet:kosher": "no", "established": "1939", "name": "Ravintola Kannas", "opening_hours": "Su 14:00-24:00; Mo-Th 16:00-24:00; Fr 16:00-02:00; Sa 14:00-02:00", "payment:credit_cards": "yes", "payment:debit_cards": "yes", "smoking": "no", "toilets:wheelchair": "no", "website": "http://www.kannas.fi/", "wheelchair": "no"}}, {"type": "node", "id": 1377250652, "lat": 60.163146, "lon": 24.927851, "tags": {"addr:city": "Helsinki", "addr:country": "FI", "addr:housenumber": "8", "addr:street": "Hietalahdenkatu", "amenity": "restaurant", "cuisine": "nepalese", "description": "Nepalese", "diet:halal": "no", "diet:kosher": "no", "diet:vegetarian": "yes", "name": "Aangan", "opening_hours": "Mo-Th 10:30-22:00; Fr 10:30-23:00; Sa 12:00-23:00; Su 12:00-22:00", "payment:credit_cards": "yes", "payment:debit_cards": "yes", "phone": "+35896214490", "website": "http://www.aangan.fi"}}, {"type": "node", "id": 1377250655, "lat": 60.1620441, "lon": 24.9285051, "tags": {"addr:city": "Helsinki", "addr:country": "FI", "addr:housenumber": "11", "addr:postcode": "00180", "addr:street": "Hietalahdenranta", "amenity": "restaurant", "diet:halal": "no", "diet:kosher": "no", "name": "Ravintola Hieta", "payment:credit_cards": "yes", "payment:debit_cards": "yes", "website": "http://ravintolahieta.fi/", "wheelchair": "limited"}}, {"type": "node", "id": 1377250701, "lat": 60.1631626, "lon": 24.929836, "tags": {"amenity": "restaurant", "diet:halal": "no", "diet:kosher": "no", "name": "Ravintola Piilo", "payment:credit_cards": "yes", "payment:debit_cards": "yes"}}, {"type": "node", "id": 1378007245, "lat": 60.1683, "lon": 24.9324112, "tags": {"addr:city": "Helsinki", "addr:country": "FI", "addr:housenumber": "4-6", "addr:postcode": "00100", "addr:street": "Urho Kekkosen katu", "amenity": "restaurant", "contact:phone": "+35896942738", "contact:website": "https://www.dragonspring.fi/", "cuisine": "chinese", "diet:halal": "no", "diet:kosher": "no", "name": "Dragon Spring", "opening_hours": "Mo, We, Th 11:00-22:00; Fr 11:00-23:00; Sa 12:00-23:00; Su 12:00-22:00"}}, {"type": "node", "id": 1378007258, "lat": 60.16839, "lon": 24.9326922, "tags": {"addr:city": "Helsinki", "addr:country": "FI", "addr:housenumber": "4-6", "addr:postcode": "00100", "addr:street": "Urho Kekkosen katu", "amenity": "restaurant", "contact:website": "http://www.ravintolailves.fi/", "diet:halal": "no", "diet:kosher": "no", "name": "Ilves", "opening_hours": "Mo-Th 11:00-23:15; Fr 11:00-24:00; Sa 00:00-03:00,11:00-24:00; Su 00:00-03:00", "wheelchair": "limited"}}, {"type": "node", "id": 1378007271, "lat": 60.1673257, "lon": 24.9360473, "tags": {"addr:city": "Helsinki", "addr:country": "FI", "addr:housenumber": "26", "addr:postcode": "00100", "addr:street": "Annankatu", "amenity": "restaurant", "diet:halal": "no", "diet:kosher": "no", "diet:vegetarian": "yes", "name": "Long Wall", "opening_hours": "Mo-Fr 11:00-23:00, Sa-Su 12:00-23:00; PH off", "phone": "+3589676131", "wheelchair": "no"}}, {"type": "node", "id": 1378007285, "lat": 60.1668894, "lon": 24.9347347, "tags": {"addr:city": "Helsinki", "addr:country": "FI", "addr:housenumber": "14", "addr:postcode": "00100", "addr:street": "Eerikinkatu", "amenity": "restaurant", "cuisine": "korean;barbecue", "diet:halal": "no", "diet:kosher": "no", "diet:non-vegetarian": "yes", "diet:vegetarian": "yes", "name": "Nabi Korean BBQ", "opening_hours": "Mo-Th 15:00-21:30; Fr-Sa 15:00-22:00; Su 15:00-21:30", "phone": "+358 45 783 66999", "reservation": "recommended", "website": "https://www.nabikoreanbbq.fi/", "wheelchair": "no"}}, {"type": "node", "id": 1378007286, "lat": 60.1678526, "lon": 24.9358008, "tags": {"addr:city": "Helsinki", "addr:country": "FI", "addr:housenumber": "29", "addr:postcode": "00100", "addr:street": "Annankatu", "amenity": "restaurant", "diet:halal": "no", "diet:kosher": "no", "diet:vegan": "yes", "diet:vegetarian": "yes", "name": "Pikku Nepal", "opening_hours": "Mo 11:00-22:00; Tu-Fr 11:00-23:00; Sa 13:00-23:00; Su 13:00-22:00; PH off", "payment:credit_cards": "yes", "payment:debit_cards": "yes", "phone": "+35896931778", "website": "http://www.pikkunepal.fi", "wheelchair": "no"}}, {"type": "node", "id": 1378007300, "lat": 60.1690483, "lon": 24.9356581, "tags": {"addr:city": "Helsinki", "addr:country": "FI", "amenity": "restaurant", "diet:halal": "no", "diet:kosher": "no", "name": "Simonkatu", "name:sv": "Simonsgatan", "payment:credit_cards": "yes", "payment:debit_cards": "yes", "wheelchair": "yes"}}, {"type": "node", "id": 1378064347, "lat": 60.1669962, "lon": 24.9276881, "tags": {"access:covid19": "no", "addr:city": "Helsinki", "addr:country": "FI", "addr:housenumber": "17", "addr:street": "Lapinlahdenkatu", "amenity": "restaurant", "delivery:covid19": "yes", "diet:halal": "no", "diet:kosher": "no", "drive_through:covid19": "no", "name": "Mount Everest", "opening_hours": "Mo-Fr 12:00-21:00; Sa,Su 13:00-21:00", "opening_hours:covid19": "Mo-Fr 12:00-21:00; Sa,Su 13:00-21:00", "takeaway:covid19": "yes"}}, {"type": "node", "id": 1378064349, "lat": 60.1668033, "lon": 24.930538, "tags": {"addr:city": "Helsinki", "addr:country": "FI", "addr:housenumber": "2", "addr:street": "Malminrinne", "amenity": "restaurant", "cuisine": "pizza", "diet:halal": "no", "diet:kosher": "no", "drive_through": "no", "internet_access": "wlan", "name": "Ravintola Sivukaide", "opening_hours": "Mo-Th 10:00-02:30; Fr-Sa 11:00-05:00; Su 11:00-02:30", "payment:credit_cards": "yes", "payment:debit_cards": "yes"}}, {"type": "node", "id": 1378620638, "lat": 60.1683379, "lon": 24.9282631, "tags": {"addr:housenumber": "19", "addr:postcode": "00100", "addr:street": "Salomonkatu", "amenity": "restaurant", "cuisine": "indian", "diet:halal": "no", "diet:kosher": "no", "diet:vegetarian": "yes", "name": "Tandoor", "opening_hours": "Mo-Fr 11:00-22:30; Sa 12:00-22:30; Su 13:00-22:00", "outdoor_seating": "yes", "phone": "+358 50 4142135", "takeaway": "yes", "website": "http://www.tandoor.fi"}}, {"type": "node", "id": 1378950381, "lat": 60.1678894, "lon": 24.9296354, "tags": {"addr:city": "Helsinki", "addr:country": "FI", "amenity": "restaurant", "diet:halal": "no", "diet:kosher": "no", "diet:vegan": "yes", "diet:vegetarian": "yes", "name": "Grill it", "opening_hours": "Mo-Tu 11:00-23:00; We-Fr 11:00-24:00; Sa 14:00-24:00", "website": "https://www.raflaamo.fi/en/helsinki/grill-it-helsinki"}}, {"type": "node", "id": 1378951619, "lat": 60.1692236, "lon": 24.9297216, "tags": {"addr:city": "Helsinki", "addr:country": "FI", "addr:housenumber": "48", "addr:postcode": "00100", "addr:street": "Fredrikinkatu", "amenity": "restaurant", "cuisine": "nepalese", "diet:halal": "no", "diet:kosher": "no", "name": "Satkar", "opening_hours": "Mo-Fr 11:00-22:00; Sa-Su 12:00-23:00", "phone": "+3589611077", "url": "http://www.satkar.fi/", "wheelchair": "yes"}}, {"type": "node", "id": 1379037953, "lat": 60.1691258, "lon": 24.9368128, "tags": {"addr:city": "Helsinki", "addr:country": "FI", "addr:housenumber": "8", "addr:postcode": "00100", "addr:street": "Simonkatu", "amenity": "restaurant", "cuisine": "spanish", "diet:halal": "no", "diet:kosher": "no", "name": "Como Vinoteca", "payment:credit_cards": "yes", "payment:debit_cards": "yes"}}, {"type": "node", "id": 1380974071, "lat": 60.1692096, "lon": 24.9334771, "tags": {"addr:city": "Helsinki", "addr:country": "FI", "addr:housenumber": "1", "addr:postcode": "00100", "addr:street": "Urho Kekkosen katu", "amenity": "restaurant", "cuisine": "sushi", "diet:halal": "no", "diet:kosher": "no", "floor": "1", "name": "Ichiban Sushi", "opening_hours": "Mo-Fr 11:00-20:30; Sa-Su 12:00-17:30", "payment:credit_cards": "yes", "payment:debit_cards": "yes", "website": "https://www.ichiban.fi/", "wheelchair": "yes"}}, {"type": "node", "id": 1380976598, "lat": 60.1680438, "lon": 24.9397048, "tags": {"addr:city": "Helsinki", "addr:country": "FI", "addr:housenumber": "3", "addr:postcode": "00100", "addr:street": "Kalevankatu", "amenity": "restaurant", "cuisine": "regional", "diet:halal": "no", "diet:kosher": "no", "name": "Ravintola Kosmos", "opening_hours": "Mo-Fr 11:30-01:00; Sa 16:00-01:00", "payment:credit_cards": "yes", "payment:debit_cards": "yes", "website": "http://www.kosmos.fi/"}}, {"type": "node", "id": 1381017813, "lat": 60.1685632, "lon": 24.9283809, "tags": {"addr:housenumber": "4a", "addr:postcode": "00100", "addr:street": "Runeberginkatu", "amenity": "restaurant", "cuisine": "pizza", "diet:halal": "no", "diet:kosher": "no", "diet:vegan": "yes", "diet:vegetarian": "yes", "name": "Kampin Pippuri", "opening_hours": "Mo-Tu 10:00-24:00; We-Sa 10:00-05:00; Su 12:00-24:00", "phone": "+358 9 6943447", "takeaway": "yes", "website": "https://www.kampinpippuri.fi"}}, {"type": "node", "id": 1381017820, "lat": 60.1703705, "lon": 24.9369528, "tags": {"addr:city": "Helsinki", "addr:country": "FI", "amenity": "restaurant", "diet:halal": "yes", "diet:kosher": "no", "name": "Lasipalatsi", "payment:credit_cards": "yes", "payment:debit_cards": "yes", "url": "http://ravintola.lasipalatsi.fi/", "wheelchair": "limited"}}, {"type": "node", "id": 1382297421, "lat": 60.1650075, "lon": 24.9260949, "tags": {"amenity": "restaurant", "cuisine": "turkish", "diet:halal": "no", "diet:kosher": "no", "name": "Halikarnas", "payment:credit_cards": "yes", "payment:debit_cards": "yes"}}, {"type": "node", "id": 1490901361, "lat": 60.1688316, "lon": 24.9317459, "tags": {"amenity": "restaurant", "diet:halal": "no", "diet:kosher": "no", "level": "1", "name": "BBQ-House", "opening_hours": "Mo-Th 11:00-23:00; Fr 11:00-24:00; Sa 12:00-23:00; Su 13:00-22:00", "wheelchair": "yes"}}, {"type": "node", "id": 1508767312, "lat": 60.1679004, "lon": 24.9308186, "tags": {"addr:housenumber": "2", "addr:postcode": "00100", "addr:street": "Kampinkuja", "amenity": "restaurant", "brand": "Osaka Sushi", "contact:email": "kamppi@osakasushi.fi", "contact:phone": "+358504323222", "contact:website": "https://osakasushi.fi/helsinki_kamppi_fi/", "cuisine": "sushi", "diet:halal": "no", "diet:kosher": "no", "lunch": "buffet", "name": "Osaka Sushi", "opening_hours": "Mo-Fr 10:30-21:00; Sa-Su 12:00-21:00"}}, {"type": "node", "id": 1508767343, "lat": 60.1680054, "lon": 24.9308566, "tags": {"amenity": "restaurant", "cuisine": "italian;pizza", "diet:halal": "no", "diet:kosher": "no", "name": "Il Duetto"}}, {"type": "node", "id": 1513653530, "lat": 60.1663086, "lon": 24.9347188, "tags": {"addr:city": "Helsinki", "addr:country": "FI", "addr:postcode": "00100", "addr:state": "23", "addr:street": "Kalevankatu", "amenity": "restaurant", "contact:email": "ouhuaoy@live.com", "contact:phone": "+35896801865", "contact:website": "https://www.happyfoodgarden.com/", "cuisine": "chinese", "diet:halal": "no", "diet:kosher": "no", "name": "Happy Food Garden", "opening_hours": "Mo 15:00-21:00; Tu-Su 12:00-21:00", "payment:credit_cards": "yes", "payment:debit_cards": "yes"}}, {"type": "node", "id": 1513653542, "lat": 60.1657042, "lon": 24.9336838, "tags": {"addr:city": "Helsinki", "addr:country": "FI", "addr:housenumber": "28", "addr:postcode": "00100", "addr:street": "Kalevankatu", "amenity": "restaurant", "cuisine": "chinese", "diet:halal": "no", "diet:kosher": "no", "name": "Nanking", "opening_hours": "Mo-Fr 11:00-22:00; Sa-Su 12:00-22:00", "payment:credit_cards": "yes", "payment:debit_cards": "yes", "phone": "09 6940338", "takeaway": "yes", "toilets:wheelchair": "no", "wheelchair": "yes"}}, {"type": "node", "id": 1604685371, "lat": 60.1658966, "lon": 24.9419939, "tags": {"addr:city": "Helsinki", "addr:country": "FI", "addr:housenumber": "6", "addr:postcode": "00120", "addr:street": "Bulevardi", "amenity": "restaurant", "cuisine": "asian", "diet:halal": "no", "diet:kosher": "no", "name": "Gaijin", "opening_hours": "Mo 17:00-00:30;Tu-Fr 11:30-00:30;Sa 17:00-00:30;Su 17:00-23:00", "website": "https://www.gaijin.fi/", "wheelchair": "yes"}}, {"type": "node", "id": 1629005975, "lat": 60.1629118, "lon": 24.9333995, "tags": {"addr:city": "Helsinki", "addr:country": "FI", "addr:housenumber": "36", "addr:postcode": "00120", "addr:street": "Bulevardi", "amenity": "restaurant", "cuisine": "regional", "description:en": "Feelings from Lapland", "diet:halal": "no", "diet:kosher": "no", "name": "Saaga Lappish restaurant", "opening_hours": "Mo-Sa 12:00-23:00, Su 18:00-22:00", "operator": "A&S Ravintolat", "payment:credit_cards": "yes", "payment:debit_cards": "yes", "phone": "+358 9 7425 5544", "website": "https://www.ravintolasaaga.fi/"}}, {"type": "node", "id": 1861218120, "lat": 60.1671166, "lon": 24.9265843, "tags": {"addr:city": "Helsinki", "addr:housenumber": "21", "addr:postcode": "00180", "addr:street": "Lapinlahdenkatu", "amenity": "restaurant", "check_date": "2022-06-29", "cuisine": "vietnamese", "diet:halal": "no", "diet:kosher": "no", "diet:vegan": "yes", "diet:vegetarian": "yes", "email": "info.thesaigonese@gmail.com", "name": "The Saigonese", "old_name": "Emoi", "opening_hours": "Mo-Fr 11:00-20:00; Sa-Su 12:00-19:00", "outdoor_seating": "yes", "payment:credit_cards": "yes", "payment:debit_cards": "yes", "phone": "+358 46 5989104", "takeaway": "yes", "website": "https://the-saigonese.com/", "wheelchair": "no"}}, {"type": "node", "id": 1913091197, "lat": 60.1642983, "lon": 24.9217561, "tags": {"addr:city": "Helsinki", "addr:housenumber": "1a", "addr:postcode": "00180", "addr:street": "Mechelininkatu", "amenity": "restaurant", "diet:halal": "no", "diet:kosher": "no", "name": "Pihka Meclu", "opening_hours": "Mo-Fr 08:00-15:00", "payment:credit_cards": "yes", "payment:debit_cards": "yes", "short_name": "Pihka", "website": "https://meclu.pihka.fi/"}}, {"type": "node", "id": 1913091198, "lat": 60.1642755, "lon": 24.923286, "tags": {"addr:city": "Helsinki", "addr:housenumber": "23", "addr:postcode": "00180", "addr:street": "Ruoholahdenkatu", "amenity": "restaurant", "diet:halal": "no", "diet:kosher": "no", "name": "Ravintola Savor", "payment:credit_cards": "yes", "payment:debit_cards": "yes", "website": "http://www.savor.fi/"}}, {"type": "node", "id": 2018446356, "lat": 60.1644666, "lon": 24.9404945, "tags": {"addr:city": "Helsinki", "addr:country": "FI", "addr:housenumber": "15", "addr:postcode": "00120", "addr:street": "Uudenmaankatu", "amenity": "restaurant", "cuisine": "sushi", "diet:halal": "no", "diet:kosher": "no", "name": "Sushibar+wine", "opening_hours": "Mo-Th 11:00-22:00;Fr 11:00-23:00;Sa 14:00-23:00", "phone": "+358106668456", "website": "https://www.sushibar.fi/", "wheelchair": "no"}}, {"type": "node", "id": 2083492661, "lat": 60.1678465, "lon": 24.9322975, "tags": {"addr:city": "Helsinki", "addr:country": "FI", "addr:housenumber": "61", "addr:postcode": "00100", "addr:street": "Fredrikinkatu", "addr:unit": "B", "amenity": "restaurant", "contact:email": "info@cafemarmara.fi", "contact:phone": "+358449861203", "contact:website": "https://cafemarmara.fi/", "cuisine": "turkish", "lunch": "buffet", "name": "Cafe Marmara", "opening_hours": "Mo-Fr 08:00-22:00; Sa-Su 11:00-21:00"}}, {"type": "node", "id": 2083492663, "lat": 60.1665025, "lon": 24.9267128, "tags": {"addr:city": "Helsinki", "addr:country": "FI", "addr:housenumber": "2", "addr:postcode": "00180", "addr:street": "Lapinrinne", "amenity": "restaurant", "cuisine": "diner;noodles;asian;vietnamese", "delivery": "yes", "diet:vegan": "yes", "name": "Mekong", "name:en": "Mekong", "name:fi": "Mekong", "name:sv": "Mekong", "opening_hours": "Mo-Fr 11:00-20:00; Sa 12:00-21:00", "phone": "+358 45 254 3797", "website": "https://mekong.restaurant/"}}, {"type": "node", "id": 2088461184, "lat": 60.1671577, "lon": 24.9371786, "tags": {"addr:city": "Helsinki", "addr:country": "FI", "addr:housenumber": "13", "addr:postcode": "00100", "addr:street": "Kalevankatu", "amenity": "restaurant", "diet:halal": "no", "diet:kosher": "no", "highchair": "yes", "name": "Passio", "note": "brunch", "opening_hours": "Mo-Th 17:00-24:00; Fr-Su 16:00-24:00", "payment:credit_cards": "yes", "payment:debit_cards": "yes", "website": "http://passiodining.fi", "wheelchair": "no"}}, {"type": "node", "id": 2151458227, "lat": 60.1637879, "lon": 24.9350075, "tags": {"addr:city": "Helsinki", "addr:country": "FI", "addr:housenumber": "19", "addr:postcode": "00120", "addr:street": "Bulevardi", "amenity": "restaurant", "cuisine": "korean", "diet:halal": "no", "diet:kosher": "no", "lunch": "yes", "name": "Giwa", "payment:credit_cards": "yes", "payment:debit_cards": "yes", "phone": "+358 40 199 3223", "wheelchair": "no"}}, {"type": "node", "id": 2249127684, "lat": 60.1650264, "lon": 24.9420466, "tags": {"addr:city": "Helsinki", "addr:country": "FI", "addr:housenumber": "9", "addr:postcode": "00120", "addr:street": "Uudenmaankatu", "amenity": "restaurant", "contact:email": "hello@holydoner.fi", "contact:facebook": "https://www.facebook.com/Holy-D%C3%B8ner-110584667915848/", "contact:instagram": "holy_doner", "contact:phone": "+358413180975", "contact:website": "https://www.holydoner.fi/", "cuisine": "kebab", "lunch": "yes", "lunch:opening_hours": "Mo-Fr 11:00-15:00", "name": "Holy D\u00f8ner", "opening_hours": "Mo-Th 11:00-21:00; Fr 11:00-22:00; Sa 12:00-22:00"}}, {"type": "node", "id": 2264313699, "lat": 60.1667265, "lon": 24.9348688, "tags": {"addr:city": "Helsinki", "addr:housenumber": "14", "addr:postcode": "00100", "addr:street": "Eerikinkatu", "amenity": "restaurant", "cuisine": "vietnamese", "delivery": "yes", "diet:halal": "no", "diet:kosher": "no", "diet:vegan": "limited", "email": "info@vibami.fi", "level": "2", "lunch": "yes", "name": "Vibami Eerikinkatu", "opening_hours": "Mo-Th 11:00-21:00; Fr 11:00-22:00; Sa 12:00-22:00; Su off", "phone": "+358 45 196 4661", "reservation": "yes", "takeaway": "yes", "was:name": "Helmi", "website": "https://www.vibami.fi/", "wheelchair": "no"}}, {"type": "node", "id": 2264313703, "lat": 60.163951, "lon": 24.9267499, "tags": {"amenity": "restaurant", "cuisine": "regional", "diet:halal": "no", "diet:kosher": "no", "name": "Konstan M\u00f6lj\u00e4", "opening_hours": "Tu-Fr 17:00-22:00; Sa 16:00-23:00; Su,Mo off", "payment:credit_cards": "yes", "payment:debit_cards": "yes", "phone": "+358 9 6947504", "website": "https://www.konstanmolja.fi", "website:en": "https://www.konstanmolja.fi/english", "wheelchair": "no"}}, {"type": "node", "id": 2264356399, "lat": 60.1697396, "lon": 24.9367976, "tags": {"addr:city": "Helsinki", "amenity": "restaurant", "cuisine": "sushi", "diet:halal": "no", "diet:kosher": "no", "name": "Haiku", "opening_hours": "Mo-Th 11:00-20:00; Fr 11:00-21:00; Sa,Su 12:00-20:00", "payment:credit_cards": "yes", "payment:debit_cards": "yes", "website": "https://www.haikusushi.fi", "wheelchair": "limited"}}, {"type": "node", "id": 2264356403, "lat": 60.1677156, "lon": 24.9370678, "tags": {"addr:city": "Helsinki", "addr:country": "FI", "addr:housenumber": "4", "addr:postcode": "00100", "addr:street": "Eerikinkatu", "amenity": "restaurant", "cuisine": "spanish", "diet:halal": "no", "diet:kosher": "no", "name": "Parilla Espanola", "payment:credit_cards": "yes", "payment:debit_cards": "yes", "website": "http://parillaespanola.fi/", "wheelchair": "no"}}, {"type": "node", "id": 2267584419, "lat": 60.1672111, "lon": 24.9413842, "tags": {"addr:city": "Helsinki", "addr:country": "FI", "addr:housenumber": "2", "addr:postcode": "00100", "addr:street": "L\u00f6nnrotinkatu", "amenity": "restaurant", "cuisine": "japanese", "diet:halal": "no", "diet:kosher": "no", "name": "Kin Sushi Helsinki", "opening_hours": "Mo-Fr 11:00-15:00,17:00-22:00;Sa 12:00-22:00;Su 12:00-18:00", "wheelchair": "limited"}}, {"type": "node", "id": 2267584426, "lat": 60.1680709, "lon": 24.9389781, "tags": {"addr:city": "Helsinki", "addr:country": "FI", "addr:housenumber": "21a", "addr:postcode": "00100", "addr:street": "Yrj\u00f6nkatu", "amenity": "restaurant", "diet:halal": "no", "diet:kosher": "no", "name": "KarlJohan", "website": "http://www.ravintolakarljohan.fi/", "wheelchair": "no"}}, {"type": "node", "id": 2267584430, "lat": 60.1679089, "lon": 24.940823, "tags": {"addr:city": "Helsinki", "addr:country": "FI", "addr:housenumber": "12", "addr:postcode": "00100", "addr:street": "Mannerheimintie", "amenity": "restaurant", "diet:halal": "no", "diet:kosher": "no", "name": "Iguana", "opening_hours": "Mo-Th 11:00-01:00;Fr-Sa 11:00-03:00;Su 11:00-01:00", "website": "http://iguana.fi/mansku.html", "wheelchair": "limited"}}, {"type": "node", "id": 2322707913, "lat": 60.1674861, "lon": 24.9388372, "tags": {"addr:city": "Helsinki", "addr:country": "FI", "addr:housenumber": "6", "addr:postcode": "00100", "addr:street": "Kalevankatu", "amenity": "restaurant", "cuisine": "pizza", "diet:halal": "no", "diet:kosher": "no", "diet:vegetarian": "yes", "name": "Putte's Bar & Pizza", "opening_hours": "Mo-Th 11:00-24:00, Fr 11:00-03:00, Sa 11:00-02:00, Su 12:00-24:00", "payment:credit_cards": "yes", "payment:debit_cards": "yes", "website": "http://www.puttes.fi/"}}, {"type": "node", "id": 2403899236, "lat": 60.1660454, "lon": 24.943352, "tags": {"addr:city": "Helsinki", "addr:country": "FI", "amenity": "restaurant", "cuisine": "asian", "diet:halal": "no", "diet:kosher": "no", "name": "Pastor", "opening_hours": "Tu-Th 17:00-23:00;Fr 17:00-03:00;Sa 16:00-03:00", "payment:credit_cards": "yes", "payment:debit_cards": "yes", "website": "http://www.pastorrestaurant.fi", "wheelchair": "no"}}, {"type": "node", "id": 2548994916, "lat": 60.1670136, "lon": 24.9350255, "tags": {"addr:city": "Helsinki", "addr:country": "FI", "addr:housenumber": "12", "addr:street": "Eerikinkatu", "amenity": "restaurant", "contact:website": "http://www.lasoupe.fi/", "diet:halal": "no", "diet:kosher": "no", "name": "La Soupe", "opening_hours": "Mo-Fr 10:00-18:00;Sa 11:00-17:00", "takeaway": "yes", "wheelchair": "no"}}, {"type": "node", "id": 2623487082, "lat": 60.1656877, "lon": 24.9361725, "tags": {"addr:city": "Helsinki", "addr:housenumber": "13", "addr:postcode": "00120", "addr:street": "L\u00f6nnrotinkatu", "amenity": "restaurant", "brand": "Kotipizza", "cuisine": "pizza", "diet:halal": "no", "diet:kosher": "no", "name": "Kotipizza", "opening_hours": "Mo-Th 10:30-22:30; Fr,Sa 10:30-23:30; Su 11:00-22:00", "phone": "+358 207 716 377", "website": "https://www.kotipizza.fi/index/20?kotipizzaID=FI00020377"}}, {"type": "node", "id": 3223504268, "lat": 60.1680013, "lon": 24.9361285, "tags": {"addr:housenumber": "29 B", "addr:street": "Annankatu", "amenity": "restaurant", "diet:halal": "no", "diet:kosher": "no", "diet:vegan": "only", "diet:vegetarian": "only", "name": "OmNam", "opening_hours": "Mo-Fr 11:00-15:00 open \"Lunch\", We-Fr 17:00-22:00 open \"Dinner\"; Sa 12:00-22:00 open \"Dinner\"", "payment:credit_cards": "yes", "payment:debit_cards": "yes", "website": "http://omnam.fi/", "wheelchair": "no"}}, {"type": "node", "id": 3345320894, "lat": 60.1652397, "lon": 24.9359905, "tags": {"addr:city": "Helsinki", "addr:country": "FI", "addr:housenumber": "41", "addr:postcode": "00120", "addr:street": "Fredrikinkatu", "amenity": "restaurant", "cuisine": "french", "diet:halal": "no", "diet:kosher": "no", "email": "varaukset@murudining.fi", "name": "Muru", "opening_hours": "Tu-Sa 17:00-23:30", "payment:credit_cards": "yes", "payment:debit_cards": "yes", "phone": "+358300472335", "website": "https://www.murudining.fi/"}}, {"type": "node", "id": 3632905510, "lat": 60.1643852, "lon": 24.9325294, "tags": {"addr:city": "Helsinki", "addr:housenumber": "27", "addr:postcode": "00180", "addr:street": "L\u00f6nnrotinkatu", "amenity": "restaurant", "cuisine": "thai", "diet:halal": "no", "diet:kosher": "no", "diet:vegetarian": "yes", "name": "Red Koi Thai", "opening_hours": "Mo-Th 11:00-22:00; Fr 11:00-23:00; Sa 13:00 - 23:00; Su 13:00 - 21:00", "payment:credit_cards": "yes", "payment:debit_cards": "yes", "takeaway": "yes", "website": "http://redkoithai.com", "wheelchair": "limited"}}, {"type": "node", "id": 3934131773, "lat": 60.1628699, "lon": 24.922448, "tags": {"addr:city": "Helsinki", "addr:housenumber": "8", "addr:postcode": "00180", "addr:street": "Ruoholahdenranta", "amenity": "restaurant", "check_date": "2022-10-14", "cuisine": "burger", "description": "konttikahvila", "diet:halal": "no", "diet:kosher": "no", "name": "Konttiravintola Morton", "opening_hours": "Mo-Th 10:00-21:00; Fr 10:00-22:00; Sa 11:00-22:00; Su 11:00-20:00", "outdoor_seating": "yes", "payment:credit_cards": "yes", "payment:debit_cards": "yes", "short_name": "Cargo", "source": "survey;Anonymous map note", "website": "https://www.morton.fi"}}, {"type": "node", "id": 4142570489, "lat": 60.1690106, "lon": 24.9366378, "tags": {"addr:city": "Helsinki", "addr:street": "Simonkatu", "amenity": "restaurant", "diet:halal": "no", "diet:kosher": "no", "name": "g-lounge", "payment:credit_cards": "yes", "payment:debit_cards": "yes", "wheelchair": "yes", "wheelchair:description": "Nice view and good tapas"}}, {"type": "node", "id": 4150191031, "lat": 60.1629549, "lon": 24.9292429, "tags": {"amenity": "restaurant", "diet:halal": "no", "diet:kosher": "no", "name": "Super Bowl", "payment:credit_cards": "yes", "payment:debit_cards": "yes"}}, {"type": "node", "id": 4150192017, "lat": 60.1628579, "lon": 24.9291521, "tags": {"amenity": "restaurant", "cuisine": "japanese", "diet:halal": "no", "diet:kosher": "no", "diet:vegan": "yes", "diet:vegetarian": "yes", "name": "Fat Ramen", "payment:credit_cards": "yes", "payment:debit_cards": "yes"}}, {"type": "node", "id": 4150192789, "lat": 60.1630841, "lon": 24.9294423, "tags": {"amenity": "restaurant", "cuisine": "japanese", "name": "Tokyo Street"}}, {"type": "node", "id": 4161342845, "lat": 60.162973, "lon": 24.9294669, "tags": {"amenity": "restaurant", "cuisine": "vietnamese", "diet:vegetarian": "yes", "name": "Mama's Ph\u1edf", "payment:credit_cards": "yes", "payment:debit_cards": "yes"}}, {"type": "node", "id": 4377583944, "lat": 60.1692828, "lon": 24.934287, "tags": {"addr:city": "Helsinki", "addr:housenumber": "1 A, Floor E", "addr:postcode": "00100", "addr:street": "Urho Kekkosen katu", "amenity": "restaurant", "check_date:diet:vegetarian": "2021-08-12", "diet:halal": "no", "diet:kosher": "no", "diet:vegan": "yes", "diet:vegetarian": "yes", "name": "Memphis", "opening_hours": "Mo-Tu 11:00-23:00, We-Th 11:00-21:00; Fr 11:00-24:00; Sa 00:00-01:00; Sa 11:00-24:00; Su 00:00-02:00; Su 12:00-23:00", "opening_hours:covid19": "off", "toilets:wheelchair": "yes", "website": "https://www.raflaamo.fi/fi/helsinki/memphis-kamppi", "wheelchair": "yes"}}, {"type": "node", "id": 4377596789, "lat": 60.1692734, "lon": 24.9309494, "tags": {"addr:city": "Helsinki", "addr:housenumber": "15, 2. krs./Floor 2", "addr:postcode": "00100", "addr:street": "Salomonkatu", "amenity": "restaurant", "diet:halal": "no", "diet:kosher": "no", "name": "Take Sushi", "website": "https://www.facebook.com/takesushi.fi", "wheelchair": "yes"}}, {"type": "node", "id": 4488070413, "lat": 60.1667434, "lon": 24.9294067, "tags": {"addr:city": "Helsinki", "addr:housenumber": "9", "addr:postcode": "00180", "addr:street": "Lapinlahdenkatu", "amenity": "restaurant", "cuisine": "asian", "diet:halal": "no", "diet:kosher": "no", "name": "Xiao Mei Lin Dumplings", "opening_hours": "Mo-Fr 11:00-21:30; Sa 12:00-21:30", "payment:credit_cards": "yes", "payment:debit_cards": "yes", "phone": "+358 50 5134883", "takeaway": "yes", "website": "https://www.xiao-meilin.com"}}, {"type": "node", "id": 4549508089, "lat": 60.1647743, "lon": 24.9413567, "tags": {"addr:city": "Helsinki", "addr:country": "FI", "addr:housenumber": "9-11", "addr:postcode": "00120", "addr:street": "Uudenmaankatu", "amenity": "restaurant", "cuisine": "nordic", "diet:halal": "no", "diet:kosher": "no", "name": "Demo", "name:en": "Demo", "opening_hours": "Tu-Sa 16:00-23:00", "stars": "1", "website": "http://www.restaurantdemo.fi/", "wikidata": "Q18658722", "wikipedia": "fi:Demo (ravintola)"}}, {"type": "node", "id": 4558788099, "lat": 60.165986, "lon": 24.9422324, "tags": {"addr:city": "Helsinki", "addr:country": "FI", "addr:housenumber": "6", "addr:postcode": "00120", "addr:street": "Bulevardi", "amenity": "restaurant", "diet:halal": "no", "diet:kosher": "no", "name": "Boulevard Social Bar & Restaurant", "opening_hours": "Tu-Th 11:30-23:00; Fr 11:30-00:00; Sa 14:00-00:00", "payment:credit_cards": "yes", "payment:debit_cards": "yes"}}, {"type": "node", "id": 4622594691, "lat": 60.1641956, "lon": 24.9361548, "tags": {"addr:city": "Helsinki", "addr:country": "FI", "addr:housenumber": "15", "addr:postcode": "00120", "addr:street": "Bulevardi", "amenity": "restaurant", "cuisine": "middle eastern", "diet:halal": "no", "diet:kosher": "no", "diet:vegetarian": "only", "name": "Levant", "opening_hours": "Mo-Th 11:00-19:00; Fr-Sa 11:00-21:00", "payment:credit_cards": "yes", "payment:debit_cards": "yes", "website": "http://www.levant-bulevardi.com/", "wheelchair": "limited"}}, {"type": "node", "id": 4689094128, "lat": 60.1640015, "lon": 24.9376764, "tags": {"addr:city": "Helsinki", "addr:country": "FI", "addr:housenumber": "37", "addr:postcode": "00120", "addr:street": "Fredrikinkatu", "amenity": "restaurant", "diet:halal": "no", "diet:kosher": "no", "name": "Soil Wine Room", "payment:credit_cards": "yes", "payment:debit_cards": "yes", "phone": "+358504630366", "website": "http://soilwineroom.fi"}}, {"type": "node", "id": 4689250789, "lat": 60.1649298, "lon": 24.9331002, "tags": {"addr:city": "Helsinki", "addr:housenumber": "29, sis\u00e4piha/inner yard", "addr:postcode": "00180", "addr:street": "Albertinkatu", "amenity": "restaurant", "description:covid19": "Pompier Albertinkatu on suljettu 23.3.2020 alkaen toistaiseksi.", "diet:halal": "no", "diet:kosher": "no", "name": "Ravintola Pompier", "opening_hours:covid19": "off", "payment:credit_cards": "yes", "payment:debit_cards": "yes", "website": "https://pompier.fi/albertinkatu/"}}, {"type": "node", "id": 4691897410, "lat": 60.1647231, "lon": 24.9412125, "tags": {"addr:city": "Helsinki", "addr:country": "FI", "addr:housenumber": "13", "addr:street": "Uudenmaankatu", "amenity": "restaurant", "diet:halal": "no", "diet:kosher": "no", "name": "Penny", "opening_hours": "We-Th 11:00-23:00; Fr 11:00-24:00; Sa 12:00-24:00; Su 12:00-18:00", "website": "http://www.restaurantpenny.fi"}}, {"type": "node", "id": 4691897411, "lat": 60.1632395, "lon": 24.9369408, "tags": {"addr:city": "Helsinki", "addr:country": "FI", "addr:housenumber": "31", "addr:street": "Uudenmaankatu", "amenity": "restaurant", "cuisine": "sushi", "diet:halal": "no", "diet:kosher": "no", "name": "Megumi Sushi", "opening_hours": "Mo-Fr 11:00-19:00; Sa 12:00-20:00", "payment:credit_cards": "yes", "payment:debit_cards": "yes", "phone": "+358413658302"}}, {"type": "node", "id": 4691897413, "lat": 60.1646512, "lon": 24.9408803, "tags": {"addr:city": "Helsinki", "addr:country": "FI", "addr:housenumber": "13", "addr:postcode": "00120", "addr:street": "Uudenmaankatu", "amenity": "restaurant", "cuisine": "asian", "diet:halal": "no", "diet:kosher": "no", "name": "Stone Bowl N Sushi", "website": "https://www.facebook.com/STONEBOWLNSUSHI/"}}, {"type": "node", "id": 4692013483, "lat": 60.1639271, "lon": 24.9362763, "tags": {"addr:city": "Helsinki", "addr:country": "FI", "addr:housenumber": "26", "addr:postcode": "00120", "addr:street": "Bulevardi", "amenity": "restaurant", "cuisine": "bistro", "diet:halal": "no", "diet:kosher": "no", "name": "Br\u00f6d", "payment:credit_cards": "yes", "payment:debit_cards": "yes", "website": "http://www.brod.fi/en/brod"}}, {"type": "node", "id": 4692013485, "lat": 60.1653197, "lon": 24.9403447, "tags": {"addr:city": "Helsinki", "addr:country": "FI", "addr:housenumber": "12", "addr:street": "Bulevardi", "amenity": "restaurant", "diet:halal": "no", "diet:kosher": "no", "email": "pammy@pamela.fi", "name": "Ravintola Pamela", "old_name": "Werner", "opening_hours:covid19": "off", "phone": "+358 405474203", "website": "https://www.pamela.fi/"}}, {"type": "node", "id": 4692013486, "lat": 60.1656426, "lon": 24.9418507, "tags": {"addr:city": "Helsinki", "addr:country": "FI", "addr:housenumber": "18", "addr:postcode": "00120", "addr:street": "Yrj\u00f6nkatu", "addr:unit": "B", "amenity": "restaurant", "cuisine": "italian", "diet:halal": "no", "diet:kosher": "no", "name": "Pjazza", "opening_hours": "Tu-Th 17:00-23:00; Fr 17:00-24:00; Sa 14:00-24:00", "website": "https://pjazza.fi"}}, {"type": "node", "id": 4736792284, "lat": 60.1659393, "lon": 24.9369229, "tags": {"addr:housenumber": "11", "addr:street": "L\u00f6nnrotinkatu", "amenity": "restaurant", "diet:halal": "no", "diet:kosher": "no", "level": "0", "name": "L\u00f6nkka", "opening_hours": "Mo-Th 11:00-23:00; Fr 11:00-01:00, Sa 15:00-01:00", "payment:credit_cards": "yes", "payment:debit_cards": "yes", "website": "https://lonkka.fi/"}}, {"type": "node", "id": 4738322128, "lat": 60.1654792, "lon": 24.936281, "tags": {"addr:city": "Helsinki", "addr:country": "FI", "addr:housenumber": "14", "addr:street": "L\u00f6nnrotinkatu", "amenity": "restaurant", "diet:halal": "no", "diet:kosher": "no", "name": "Mezame", "payment:credit_cards": "yes", "payment:debit_cards": "yes"}}, {"type": "node", "id": 4749101640, "lat": 60.1682467, "lon": 24.9394872, "tags": {"addr:city": "Helsinki", "addr:country": "FI", "addr:housename": "Forum", "addr:housenumber": "14", "addr:postcode": "00100", "addr:street": "Mannerheimintie", "amenity": "restaurant", "cuisine": "sushi", "diet:halal": "no", "diet:kosher": "no", "email": "kenny@itamaesushi.fi", "level": "1", "name": "Itamae Sushi", "opening_hours": "Mo-Fr 11:00-21:00;Sa-Su 12:00-18:00", "phone": "+358 9 698 0091", "website": "http://www.itamaesushi.fi/"}}, {"type": "node", "id": 4749101646, "lat": 60.1684098, "lon": 24.9397559, "tags": {"addr:city": "Helsinki", "addr:country": "FI", "addr:housename": "Forum", "addr:housenumber": "14", "addr:postcode": "00100", "addr:street": "Mannerheimintie", "amenity": "restaurant", "cuisine": "kebab", "diet:halal": "no", "diet:kosher": "no", "level": "1", "name": "Eerikin Pippuri", "opening_hours": "Su-Tu 10:00-21:00; We-Sa 10:00-05:00", "phone": "+358 50 465 1222", "website": "http://www.eerikinpippuri.fi/mannerheimintie/"}}, {"type": "node", "id": 4749101648, "lat": 60.168319, "lon": 24.9393817, "tags": {"addr:city": "Helsinki", "addr:country": "FI", "addr:housename": "Forum", "addr:housenumber": "14", "addr:postcode": "00100", "addr:street": "Mannerheimintie", "amenity": "restaurant", "cuisine": "thai", "diet:halal": "no", "diet:kosher": "no", "diet:vegetarian": "yes", "email": "info@tamarin.fi", "level": "1", "lunch:buffet": "Mo-Fr 11:00-14:00", "name": "Tamarin", "opening_hours": "Mo-Fr 11:00-21:00; Sa-Su 12:00-18:00", "payment:credit_cards": "yes", "payment:debit_cards": "yes", "phone": "+358 9 698 0026", "website": "http://www.tamarin.fi/ravintolat/forum/"}}, {"type": "node", "id": 4749101655, "lat": 60.1685162, "lon": 24.9393352, "tags": {"addr:city": "Helsinki", "addr:country": "FI", "addr:housename": "Forum", "addr:housenumber": "14", "addr:postcode": "00100", "addr:street": "Mannerheimintie", "amenity": "restaurant", "cuisine": "vietnamese", "diet:halal": "no", "diet:kosher": "no", "email": "info@onam.fi", "level": "1", "name": "\u00d4nam", "opening_hours": "Mo-Fr 11:00-21:00; Sa 12:00-19:00; Su 12:00-18:00", "phone": "+358 44 988 0738", "reservation": "yes", "website": "http://www.onam.fi/"}}, {"type": "node", "id": 4767046626, "lat": 60.1666306, "lon": 24.9374825, "tags": {"addr:city": "Helsinki", "addr:housenumber": "21", "addr:street": "Annankatu", "amenity": "restaurant", "cuisine": "salad", "diet:halal": "no", "diet:kosher": "no", "diet:vegan": "yes", "diet:vegetarian": "yes", "name": "Pupu", "opening_hours": "Mo-Fr 11:00-15:00", "website": "https://pupu.fi"}}, {"type": "node", "id": 4776225421, "lat": 60.1681856, "lon": 24.9309163, "tags": {"addr:housenumber": "2", "addr:postcode": "00100", "addr:street": "Kampinkuja", "addr:unit": "C", "amenity": "restaurant", "contact:email": "info@barbarossapizzeria.fi", "contact:facebook": "https://www.facebook.com/barbarossapizzeria", "contact:phone": "+358452354141", "contact:website": "https://barbarossapizzeria.fi/", "cuisine": "pizza", "diet:halal": "no", "diet:kosher": "no", "name": "Barbarossa Pizza & Kebab", "opening_hours": "Mo-Sa 10:00-21:30; Su 11:00-21:30", "payment:credit_cards": "yes", "payment:debit_cards": "yes"}}, {"type": "node", "id": 4847656542, "lat": 60.1669466, "lon": 24.9216005, "tags": {"addr:housename": "15 C", "addr:housenumber": "16", "addr:street": "Lapinlahdenkatu", "amenity": "restaurant", "diet:halal": "no", "diet:kosher": "no", "email": "bookings@starterhelsinki.com", "name": "Starter", "payment:credit_cards": "yes", "payment:debit_cards": "yes", "phone": "+358400214421", "url": "http://www.starterhelsinki.com/"}}, {"type": "node", "id": 4866097650, "lat": 60.1649912, "lon": 24.9348866, "tags": {"addr:city": "Helsinki", "addr:country": "FI", "addr:street": "L\u00f6nnrotinkatu", "amenity": "restaurant", "diet:halal": "no", "diet:kosher": "no", "name": "Kungfu Kitchen", "payment:credit_cards": "yes", "payment:debit_cards": "yes", "website": "http://kungfukitchen.fi"}}, {"type": "node", "id": 4876439191, "lat": 60.1655729, "lon": 24.9317336, "tags": {"addr:city": "Helsinki", "addr:country": "FI", "addr:housenumber": "35", "addr:postcode": "00120;00180", "addr:street": "Albertinkatu", "amenity": "restaurant", "cuisine": "asian", "diet:halal": "no", "diet:kosher": "no", "name": "E.K. Fast Food", "opening_hours": "Mo-Fr 11:00-19:00", "payment:credit_cards": "yes", "payment:debit_cards": "yes"}}, {"type": "node", "id": 4887918564, "lat": 60.1691027, "lon": 24.9298914, "tags": {"addr:city": "Helsinki", "addr:country": "FI", "addr:housenumber": "48", "addr:postcode": "00100", "addr:street": "Fredrikinkatu", "amenity": "restaurant", "cuisine": "thai", "diet:halal": "no", "diet:kosher": "no", "name": "Tamarin Thai Cuisine", "opening_hours": "Mo-Th 11:00-22:00; Fr 11:00-23:00; Sa 12:00-23:00; Su 12:00-22:00"}}, {"type": "node", "id": 4887918565, "lat": 60.169145, "lon": 24.929832, "tags": {"addr:city": "Helsinki", "addr:country": "FI", "addr:housenumber": "48", "addr:postcode": "00100", "addr:street": "Fredrikinkatu", "amenity": "restaurant", "cuisine": "sushi", "diet:halal": "no", "diet:kosher": "no", "name": "Green Sushi", "opening_hours": "Mo-Fr 16:00-20:00; Sa-Su 12:00-20:00"}}, {"type": "node", "id": 4989964824, "lat": 60.1684294, "lon": 24.9342431, "tags": {"addr:city": "Helsinki", "addr:country": "FI", "addr:housenumber": "34", "addr:postcode": "00100", "addr:street": "Annankatu", "amenity": "restaurant", "contact:email": "ravintola.huippu34@palmia.fi", "contact:phone": "+358401683795", "contact:website": "https://ruoka.palmia.fi/fi/ravintola/ravintola/huippu-34/", "diet:halal": "no", "diet:kosher": "no", "lunch": "buffet", "lunch:opening_hours": "Mo-Fr 11:00-13:00", "name": "Huippu 34", "opening_hours": "Mo-Fr 08:00-15:00", "operator": "Palmia", "operator:wikidata": "Q18661193", "operator:wikipedia": "fi:Palmia", "wheelchair": "no"}}, {"type": "node", "id": 5019852101, "lat": 60.1630444, "lon": 24.9292951, "tags": {"addr:city": "Helsinki", "addr:housenumber": "34", "addr:place": "Hietalahden kauppahalli", "addr:postcode": "00180", "addr:street": "L\u00f6nnrotinkatu", "amenity": "restaurant", "cuisine": "portuguese", "delivery": "no", "diet:halal": "no", "diet:kosher": "no", "diet:vegan": "yes", "diet:vegetarian": "yes", "name": "Petiscaria", "opening_hours": "Mo-Th 11:00-18:00, Fr-Sa 11:00-21:30, Su 11:00-16:00", "outdoor_seating": "no", "payment:credit_cards": "yes", "payment:debit_cards": "yes", "smoking": "outside"}}, {"type": "node", "id": 5103177157, "lat": 60.1688181, "lon": 24.9293577, "tags": {"addr:city": "Helsinki", "addr:housenumber": "3", "addr:postcode": "00100", "addr:street": "Runeberginkatu", "amenity": "restaurant", "cuisine": "regional;international;breakfast;grill;burger", "diet:halal": "no", "diet:kosher": "no", "email": "kamppi@ravintolafactory.com", "internet_access": "wlan", "name": "Ravintola Factory Kamppi", "outdoor_seating": "yes", "phone": "+358 10 2053211", "smoking": "outside", "website": "https://www.factorykamppi.com/"}}, {"type": "node", "id": 5264590061, "lat": 60.169111, "lon": 24.9387943, "tags": {"addr:city": "Helsinki", "addr:country": "FI", "addr:housename": "Forum", "addr:housenumber": "18", "addr:postcode": "00100", "addr:street": "Mannerheimintie", "amenity": "restaurant", "cuisine": "sushi", "diet:halal": "no", "diet:kosher": "no", "email": "fukuhelsinki@ravintolafuku.com", "lunch:buffet": "Mo-Fr 11:00-15:00", "name": "Fuku", "opening_hours": "Mo-Th 10:30-22:00; Fr 10:30-24:00; Sa 11:00-24:00; Su 11:00-22:00", "payment:credit_cards": "yes", "payment:debit_cards": "yes", "phone": "+358 10 501 1170", "reservation": "yes", "takeaway": "yes", "website": "https://www.fukuhelsinki.com/"}}, {"type": "node", "id": 5287639023, "lat": 60.1647183, "lon": 24.9324784, "tags": {"addr:city": "Helsinki", "addr:housenumber": "36", "addr:postcode": "00180", "addr:street": "Albertinkatu", "amenity": "restaurant", "diet:halal": "no", "diet:kosher": "no", "diet:vegan": "yes", "diet:vegetarian": "yes", "email": "info@restaurantgron.com", "name": "Gr\u00f6n", "opening_hours": "Tu-Sa 17:00-24:00", "payment:credit_cards": "yes", "payment:debit_cards": "yes", "phone": "+358503289181", "stars": "1", "website": "https://www.restaurantgron.com/", "wikidata": "Q31088616"}}, {"type": "node", "id": 5393393226, "lat": 60.1674248, "lon": 24.9340751, "tags": {"addr:city": "Helsinki", "addr:floor": "5", "addr:housenumber": "3", "addr:postcode": "00100", "addr:street": "Kansakoulukuja", "amenity": "restaurant", "diet:halal": "no", "diet:kosher": "no", "name": "Helsingin Suomalainen Klubi", "name:fi": "Helsingin Suomalainen Klubi", "opening_hours": "Mo-Th 11:00-00:00; Fr 11:00-23:00", "payment:credit_cards": "yes", "payment:debit_cards": "yes", "phone": "050 5721531", "takeaway": "no", "website": "www.klubi.fi", "wheelchair": "no"}}, {"type": "node", "id": 5393393229, "lat": 60.167268, "lon": 24.9342818}, {"type": "node", "id": 5393393230, "lat": 60.1671823, "lon": 24.9340347}, {"type": "node", "id": 5393393231, "lat": 60.1674662, "lon": 24.9336368}, {"type": "node", "id": 5393393232, "lat": 60.1674581, "lon": 24.9339134}, {"type": "node", "id": 5393393233, "lat": 60.1673954, "lon": 24.9343027}, {"type": "node", "id": 5393393234, "lat": 60.1673488, "lon": 24.9341685}, {"type": "node", "id": 5393393235, "lat": 60.1672437, "lon": 24.9339487}, {"type": "node", "id": 5393393236, "lat": 60.1672721, "lon": 24.9340305}, {"type": "node", "id": 5393393237, "lat": 60.1673252, "lon": 24.9338344}, {"type": "node", "id": 5393393238, "lat": 60.1673536, "lon": 24.9339162}, {"type": "node", "id": 6109695193, "lat": 60.1672047, "lon": 24.931692, "tags": {"addr:housenumber": "16", "addr:street": "Malminkatu", "amenity": "restaurant", "cuisine": "pizza", "diet:halal": "no", "diet:kosher": "no", "diet:vegan": "yes", "diet:vegetarian": "yes", "name": "Broo", "opening_hours": "Mo-Th 11:00-24:00; Fr 11:00-03:00; Sa 12:00-03:00; Su,PH 12:00-24:00", "payment:credit_cards": "yes", "payment:debit_cards": "yes"}}, {"type": "node", "id": 6139262247, "lat": 60.1690399, "lon": 24.9382792, "tags": {"addr:city": "Helsinki", "addr:country": "FI", "addr:housename": "Forum", "addr:housenumber": "20", "addr:postcode": "00100", "addr:street": "Mannerheimintie", "amenity": "restaurant", "cuisine": "asian", "diet:halal": "no", "diet:kosher": "no", "level": "3", "name": "Wok Up", "opening_hours": "Mo-Fr 10:30-21:00; Sa 10:30-18:00; Su 12:00-18:00", "payment:credit_cards": "yes", "payment:debit_cards": "yes", "phone": "+358 10 766 4413", "website": "https://www.raflaamo.fi/fi/helsinki/wok-up-kukontori/"}}, {"type": "node", "id": 6139262264, "lat": 60.1687758, "lon": 24.9382793, "tags": {"addr:city": "Helsinki", "addr:country": "FI", "addr:housename": "Forum", "addr:housenumber": "14-20", "addr:postcode": "00100", "addr:street": "Mannerheimintie", "amenity": "restaurant", "cuisine": "salad", "diet:halal": "no", "diet:kosher": "no", "diet:vegan": "yes", "diet:vegetarian": "yes", "level": "0", "name": "Salaattiasema", "payment:credit_cards": "yes", "payment:debit_cards": "yes", "phone": "+358 50 465 0777"}}, {"type": "node", "id": 6139262265, "lat": 60.1689704, "lon": 24.9383353, "tags": {"addr:city": "Helsinki", "addr:country": "FI", "addr:housename": "Forum", "addr:housenumber": "20", "addr:postcode": "00100", "addr:street": "Mannerheimintie", "amenity": "restaurant", "cuisine": "italian", "diet:halal": "no", "diet:kosher": "no", "email": "ravintola.italo@sok.fi", "level": "3", "name": "Italo", "opening_hours": "Mo-Th 10:30-22:00; Fr-Sa 10:30-23:00; Su 12:00-21:00", "payment:credit_cards": "yes", "payment:debit_cards": "yes", "phone": "+358 10 766 4410", "reservation": "yes", "website": "https://www.raflaamo.fi/fi/helsinki/italo/"}}, {"type": "node", "id": 6139262593, "lat": 60.1694336, "lon": 24.9385905, "tags": {"addr:city": "Helsinki", "addr:country": "FI", "addr:housename": "Forum", "addr:housenumber": "20", "addr:postcode": "00100", "addr:street": "Mannerheimintie", "amenity": "restaurant", "diet:halal": "no", "diet:kosher": "no", "email": "ravintola.kaarna@sok.fi", "level": "1", "lunch:buffet": "Mo-Fr 11:00-14:00", "name": "Kaarna", "opening_hours": "Mo-Th 11:00-23:00; Fr-Sa 11:00-24:00; Su 12:00-22:00", "payment:credit_cards": "yes", "payment:debit_cards": "yes", "phone": "+358 10 766 4550", "reservation": "yes", "website": "https://www.raflaamo.fi/fi/helsinki/kaarna-baari-keittio/"}}, {"type": "node", "id": 6139262605, "lat": 60.169005, "lon": 24.9383594, "tags": {"addr:city": "Helsinki", "addr:country": "FI", "addr:housename": "Forum", "addr:housenumber": "20 B", "addr:postcode": "00100", "addr:street": "Mannerheimintie", "amenity": "restaurant", "contact:phone": "+358449768952", "contact:website": "https://www.forum.fi/liikkeet/hua-do/", "cuisine": "chinese", "diet:halal": "no", "diet:kosher": "no", "level": "0", "lunch": "buffet", "name": "Huacheng Restaurant", "opening_hours": "Mo-Fr 11:00-21:00; Sa 11:00-19:00; Su 12:00-18:00", "payment:credit_cards": "yes", "payment:debit_cards": "yes"}}, {"type": "node", "id": 6139262609, "lat": 60.1688838, "lon": 24.9381231, "tags": {"addr:city": "Helsinki", "addr:country": "FI", "addr:housename": "Forum", "addr:housenumber": "20", "addr:postcode": "00100", "addr:street": "Mannerheimintie", "amenity": "restaurant", "cuisine": "sushi", "diet:halal": "no", "diet:kosher": "no", "email": "forum@hankosushi.fi", "level": "3", "lunch:menu": "Mo-Fr 11:00-15:00", "name": "Hanko Sushi", "opening_hours": "Mo-Fr 11:00-21:00; Sa 11:00-19:00; Su 12:00-18:00", "payment:credit_cards": "yes", "payment:debit_cards": "yes", "phone": "+358 40 654 8282", "website": "http://www.hankosushi.fi/"}}, {"type": "node", "id": 6252399997, "lat": 60.1706496, "lon": 24.9349837, "tags": {"addr:housenumber": "1", "addr:street": "Salomonkatu", "amenity": "restaurant", "diet:halal": "no", "diet:kosher": "no", "name": "Backyard Pick"}}, {"type": "node", "id": 6339908436, "lat": 60.1675281, "lon": 24.9338152}, {"type": "node", "id": 6742391537, "lat": 60.1697822, "lon": 24.9336289, "tags": {"addr:city": "Helsinki", "addr:country": "FI", "addr:housenumber": "1", "addr:postcode": "00100", "addr:street": "Urho Kekkosen katu", "amenity": "restaurant", "contact:email": "info@sandro.fi", "contact:phone": "+358291702740", "contact:website": "https://www.sandro.fi/sandro-kortteli/", "diet:halal": "no", "diet:kosher": "no", "level": "5", "lunch": "buffet", "name": "Sandro Kortteli", "opening_hours": "Mo-Th 11:00-20:00; Fr 11:00-21:00; Sa 12:00-21:00; Su 12:00-16:00"}}, {"type": "node", "id": 6742391538, "lat": 60.16969, "lon": 24.9337633, "tags": {"addr:city": "Helsinki", "addr:country": "FI", "addr:housenumber": "1", "addr:postcode": "00100", "addr:street": "Urho Kekkosen katu", "amenity": "restaurant", "cuisine": "asian", "diet:halal": "no", "diet:kosher": "no", "email": "info@hoku.fi", "image": "http://80.69.174.12/~hoku/wp-content/uploads/2019/07/Hoku-logo-black-small-1.png", "level": "5", "name": "Hoku", "opening_hours": "Mo-Th 11:00-15:00,17:00-22:00; Fr 11:00-15:00,17:00-23:00; Sa 12:00-16:00,17:00-23:00; Su 12:00-16:00", "payment:credit_cards": "yes", "payment:debit_cards": "yes", "phone": "+358 40 1646160", "website": "http://www.hoku.fi/"}}, {"type": "node", "id": 6742490272, "lat": 60.169482, "lon": 24.9339862, "tags": {"addr:city": "Helsinki", "addr:country": "FI", "addr:housenumber": "1", "addr:postcode": "00100", "addr:street": "Urho Kekkosen katu", "amenity": "restaurant", "cuisine": "italian", "diet:halal": "no", "diet:kosher": "no", "email": "manu@malopa.fi", "level": "5", "name": "Bastardo", "opening_hours": "Mo,Tu 11:00-21:30; We,Th 11:00-22:00; Fr,Sa 11:00-23:00; Su 12:00-19:30", "phone": "+358 50 3282290", "website": "http://bastardo.fi/"}}, {"type": "node", "id": 6742490273, "lat": 60.1697029, "lon": 24.9336275, "tags": {"addr:city": "Helsinki", "addr:country": "FI", "addr:housenumber": "1", "addr:postcode": "00100", "addr:street": "Urho Kekkosen katu", "amenity": "restaurant", "cuisine": "chinese", "diet:halal": "no", "diet:kosher": "no", "email": "kortteli@beijing8.com", "level": "5", "name": "Beijing8", "opening_hours": "Mo-Sa 11:00-21:00; Su 12:00-18:00", "payment:mastercard": "yes", "payment:visa": "yes", "phone": "+35 912341234", "website": "http://www.beijing8.com/en/"}}, {"type": "node", "id": 7019084927, "lat": 60.1691622, "lon": 24.9348544, "tags": {"amenity": "restaurant", "diet:halal": "no", "diet:kosher": "no", "diet:vegan": "yes", "diet:vegetarian": "yes", "name": "The Plaza", "opening_hours": "Mo-Su 11:00-02:00", "opening_hours:covid19": "off", "phone": "+358 40 1646826", "website": "https://theplaza.fi/", "wheelchair": "yes"}}, {"type": "node", "id": 7222041366, "lat": 60.16973, "lon": 24.933614, "tags": {"amenity": "restaurant", "diet:halal": "no", "diet:kosher": "no", "name": "Story Kortteli"}}, {"type": "node", "id": 7222041367, "lat": 60.1697734, "lon": 24.9336183, "tags": {"amenity": "restaurant", "diet:halal": "no", "diet:kosher": "no", "name": "Pobre", "opening_hours:covid19": "open", "takeaway:covid19": "yes"}}, {"type": "node", "id": 7222041368, "lat": 60.1696464, "lon": 24.9337678, "tags": {"amenity": "restaurant", "contact:email": "info@fisken.fi", "contact:facebook": "https://www.facebook.com/fiskendisken/", "contact:phone": "+358401971157", "contact:website": "https://www.fisken.fi/", "cuisine": "fish", "diet:halal": "no", "diet:kosher": "no", "level": "5", "name": "Fisken p\u00e5 Disken", "opening_hours": "Tu - We 11:00-16:00; Th - Fr 11:00-22:00; Sa 12:00-22:00; Su - Mo off"}}, {"type": "node", "id": 7222041369, "lat": 60.169681, "lon": 24.9337295, "tags": {"amenity": "restaurant", "diet:halal": "no", "diet:kosher": "no", "name": "Soup + More"}}, {"type": "node", "id": 7222041370, "lat": 60.1696585, "lon": 24.9337396, "tags": {"addr:housenumber": "1", "addr:postcode": "00100", "addr:street": "Urho Kekkosen katu", "amenity": "restaurant", "contact:email": "info@souk.fi", "contact:phone": "+358407645673", "contact:website": "https://www.souk.fi/", "cuisine": "mediterranean", "diet:halal": "no", "diet:kosher": "no", "level": "5", "lunch": "yes", "lunch:opening_hours": "Mo-Fr 11:00-15:00", "name": "The Souk", "opening_hours": "Mo-Th 11:00-21:00; Fr-Sa 11:00-22:00; Su 12:00-17:00"}}, {"type": "node", "id": 7629116265, "lat": 60.163977, "lon": 24.9377153, "tags": {"addr:housenumber": "37", "addr:street": "Fredrikinkatu", "amenity": "restaurant", "diet:halal": "no", "diet:kosher": "no", "name": "Ravintola sk\u00f6rd", "payment:credit_cards": "yes", "payment:debit_cards": "yes"}}, {"type": "node", "id": 7648599746, "lat": 60.1643216, "lon": 24.9274478, "tags": {"addr:housenumber": "44", "addr:street": "Eerikinkatu", "amenity": "restaurant", "cuisine": "italian", "diet:halal": "no", "diet:kosher": "no", "name": "Goose Pastabar", "payment:credit_cards": "yes", "payment:debit_cards": "yes"}}, {"type": "node", "id": 7690696533, "lat": 60.1648677, "lon": 24.9322972, "tags": {"addr:housenumber": "38", "addr:street": "Albertinkatu", "amenity": "restaurant", "diet:halal": "no", "diet:kosher": "no", "level": "1", "name": "La maza", "payment:credit_cards": "yes", "payment:debit_cards": "yes"}}, {"type": "node", "id": 7701337645, "lat": 60.1674963, "lon": 24.9340235}, {"type": "node", "id": 7701337646, "lat": 60.1675212, "lon": 24.9340954, "tags": {"access": "private", "addr:housenumber": "3", "addr:street": "Kansakoulukuja", "addr:unit": "A", "entrance": "staircase", "wheelchair": "yes"}}, {"type": "node", "id": 7701337650, "lat": 60.1674672, "lon": 24.9339397, "tags": {"access": "private", "addr:housenumber": "3", "addr:street": "Kansakoulukuja", "description": "With buzzer", "entrance": "yes"}}, {"type": "node", "id": 7701337652, "lat": 60.1674622, "lon": 24.9339077, "tags": {"access": "private", "addr:housenumber": "3", "addr:street": "Kansakoulukuja", "addr:unit": "B", "description": "With keycode", "entrance": "yes"}}, {"type": "node", "id": 7701337653, "lat": 60.1674653, "lon": 24.9339033, "tags": {"access": "private", "addr:housenumber": "3", "addr:street": "Kansakoulukuja", "description": "With buzzer", "entrance": "service"}}, {"type": "node", "id": 7701337655, "lat": 60.1674786, "lon": 24.9338846, "tags": {"access": "private", "addr:housenumber": "3", "addr:street": "Kansakoulukuja", "entrance": "service"}}, {"type": "node", "id": 7701337657, "lat": 60.1675068, "lon": 24.9338451}, {"type": "node", "id": 7701512993, "lat": 60.1671792, "lon": 24.9349235, "tags": {"addr:housenumber": "9", "addr:street": "Eerikinkatu", "amenity": "restaurant", "cuisine": "vietnamese", "diet:halal": "no", "diet:kosher": "no", "name": "Saigon House", "opening_hours": "Mo-Fr 09:00-21:00; Sa 10:00-21:00", "takeaway:covid19": "yes", "wheelchair": "no"}}, {"type": "node", "id": 7872950471, "lat": 60.1665251, "lon": 24.9310648, "tags": {"addr:housenumber": "3", "addr:street": "Lapinlahdenkatu", "amenity": "restaurant", "diet:halal": "no", "diet:kosher": "no", "name": "Bites burgers", "payment:credit_cards": "yes", "payment:debit_cards": "yes"}}, {"type": "node", "id": 8856690359, "lat": 60.1663502, "lon": 24.9331465, "tags": {"addr:city": "Helsinki", "addr:housenumber": "20", "addr:postcode": "00100", "addr:street": "Eerikinkatu", "amenity": "restaurant", "cuisine": "chinese", "diet:halal": "no", "diet:kosher": "no", "level": "0", "name": "Noodle Master", "opening_hours": "Mo-Fr 11-21; Sa-Su 12-21", "payment:credit_cards": "yes", "payment:debit_cards": "yes", "phone": "+358404868687"}}, {"type": "node", "id": 8856704582, "lat": 60.1667878, "lon": 24.9361142, "tags": {"addr:housenumber": "17", "addr:street": "Kalevankatu", "amenity": "restaurant", "capacity": "68", "diet:halal": "no", "diet:kosher": "no", "diet:vegan": "yes", "name": "Hills Dumplings", "website": "https://www.hillsdumplings.com/"}}, {"type": "node", "id": 8856704605, "lat": 60.1668881, "lon": 24.9346781, "tags": {"addr:housenumber": "14", "addr:street": "Eerikinkatu", "amenity": "restaurant", "diet:halal": "no", "diet:kosher": "no", "name": "City food & grill", "wheelchair": "no"}}, {"type": "node", "id": 8856704606, "lat": 60.1669111, "lon": 24.9347436, "tags": {"addr:housenumber": "14", "addr:street": "Eerikinkatu", "amenity": "restaurant", "diet:halal": "no", "diet:kosher": "no", "name": "Vibami Eerikinkatu", "wheelchair": "no"}}, {"type": "node", "id": 8856802598, "lat": 60.1663462, "lon": 24.9344015, "tags": {"addr:housenumber": "47", "addr:street": "Fredrikinkatu", "amenity": "restaurant", "diet:halal": "no", "diet:kosher": "no", "name": "Fafa's", "opening_hours": "Mo-Th 10:30-23; Fr 10:30-23:30; Sa 11-23:30; Su 11:30-23"}}, {"type": "node", "id": 8874984249, "lat": 60.1675686, "lon": 24.9413596, "tags": {"addr:housenumber": "10", "addr:street": "Mannerheimintie", "amenity": "restaurant", "diet:halal": "no", "diet:kosher": "no", "indoor_seating": "yes", "level": "1", "name": "Kuusi palaa", "opening_hours": "Mo-Th 16:00-23:00 Fr-Sa 15:00-23:00", "outdoor_seating": "yes"}}, {"type": "node", "id": 9144179864, "lat": 60.1667239, "lon": 24.9295743, "tags": {"addr:housenumber": "9", "addr:street": "Lapinlahdenkatu", "amenity": "restaurant", "cuisine": "thai", "diet:halal": "only", "diet:kosher": "only", "diet:vegan": "only", "name": "Thai Vegan Kitchen", "opening_hours": "Mo-Fr 11:00-21:00; Sa 12:00-21:00; Su 12:00-20:00", "payment:credit_cards": "yes", "payment:debit_cards": "yes", "phone": "+358 50 5533071", "website": "https://thaivegankitchen.fi/"}}, {"type": "node", "id": 9324306239, "lat": 60.1667448, "lon": 24.9305148, "tags": {"addr:housenumber": "2-4", "addr:street": "Malminrinne", "amenity": "restaurant", "cuisine": "chinese", "description": "Big Bowl Noodle Restaurant", "diet:halal": "no", "diet:kosher": "no", "name": "Big Bowl", "opening_hours": "Tu-Fr 11:00-21:00; Sa-Su 12:00-21:00", "payment:credit_cards": "yes", "payment:debit_cards": "yes", "phone": "044085025", "website": "bigbowlfeedback.fi"}}, {"type": "node", "id": 9346755316, "lat": 60.1634981, "lon": 24.9267853, "tags": {"amenity": "restaurant", "cuisine": "sushi", "diet:halal": "no", "diet:kosher": "no", "name": "Minato Sushi", "payment:credit_cards": "yes", "payment:debit_cards": "yes"}}, {"type": "node", "id": 9605317517, "lat": 60.1675028, "lon": 24.9338507, "tags": {"access": "private", "addr:housenumber": "3", "addr:street": "Kansakoulukuja", "entrance": "garage"}}, {"type": "node", "id": 9680153117, "lat": 60.1673554, "lon": 24.9416668, "tags": {"addr:housenumber": "8", "addr:street": "Mannerheimintie", "amenity": "restaurant", "level": "0", "name": "Hesburger", "opening_hours": "Mo-Th 10:00-23:00, Fr,Sa 10:00-06:00, Su 12:00-22:00"}}, {"type": "node", "id": 9680173917, "lat": 60.1672803, "lon": 24.9414799, "tags": {"addr:housenumber": "2", "addr:street": "L\u00f6nnrotinkatu", "amenity": "restaurant", "level": "1", "name": "Luckiefun's sushi buffet", "opening_hours": "Mo-Th 10:30-21:00; Fr 10:30-22:00; Sa 12:00-22:00; Su 12:00-21:00"}}, {"type": "node", "id": 9734177404, "lat": 60.1646611, "lon": 24.9326106, "tags": {"addr:city": "Helsinki", "addr:housenumber": "36", "addr:postcode": "00180", "addr:street": "Albertinkatu", "amenity": "restaurant", "cuisine": "british;breakfast", "diet:halal": "no", "diet:kosher": "no", "email": "info@lazyfox.fi", "name": "Lazy Fox", "opening_hours": "We-Th 08:00-22:00; Fr-Sa 08:00-24:00; Su 09:00-16:00", "payment:credit_cards": "yes", "payment:debit_cards": "yes", "website": "https://lazyfox.fi"}}, {"type": "node", "id": 9831593917, "lat": 60.16496, "lon": 24.9348381, "tags": {"amenity": "restaurant", "diet:halal": "no", "diet:kosher": "no", "name:en": "Bacco", "payment:credit_cards": "yes", "payment:debit_cards": "yes"}}, {"type": "node", "id": 9963751809, "lat": 60.168326, "lon": 24.9316454, "tags": {"addr:housenumber": "7", "addr:street": "Urho Kekkosen katu", "amenity": "restaurant", "cuisine": "vietnamese", "name": "Ph\u1edf Nokis", "opening_hours": "Mo-Fr 10:00-21:00; Sa, Su 11:00-21:00", "phone": "050 382 6688", "website": "https://www.phonokis.fi/"}}, {"type": "node", "id": 10030372540, "lat": 60.1692686, "lon": 24.9335555, "tags": {"addr:housenumber": "1", "addr:postcode": "00100", "addr:street": "Urho Kekkosen katu", "amenity": "restaurant", "contact:facebook": "https://www.facebook.com/pages/Ravintola-Don-Corleone/118940414852081", "contact:instagram": "ravintoladoncorleone", "contact:phone": "+35893218701", "contact:website": "https://doncorleone.fi/", "cuisine": "italian", "level": "0", "name": "Don Corleone Italian Kitchen"}}, {"type": "node", "id": 10065198123, "lat": 60.1665456, "lon": 24.9321835, "tags": {"addr:housenumber": "1", "addr:postcode": "00180", "addr:street": "Lapinlahdenkatu", "addr:unit": "B", "amenity": "restaurant", "contact:email": "ravintola.sisapiha@sodexo.com", "contact:facebook": "https://www.facebook.com/ravintolasisapiha/", "contact:phone": "+358505969116", "contact:website": "https://www.sodexo.fi/ravintolat/ravintola-sisapiha", "lunch": "buffet", "lunch:opening_hours": "Mo-Fr 10:30-13:30", "name": "Ravintola Sis\u00e4piha", "opening_hours": "Mo-Fr 08:00-14:30", "operator": "Sodexo", "operator:wikidata": "Q1475554", "operator:wikipedia": "fi:Sodexo"}}, {"type": "node", "id": 10102818186, "lat": 60.1696479, "lon": 24.9336976, "tags": {"addr:housenumber": "1", "addr:postcode": "00100", "addr:street": "Urho Kekkosen katu", "amenity": "restaurant", "contact:phone": "+358413141615", "contact:website": "https://lopezylopez.fi/", "cuisine": "mexican", "level": "5", "name": "Lopez y Lopez", "opening_hours": "Mo-Fr 11:00-21:30; Sa 12:00-22:00; Su off"}}, {"type": "node", "id": 10102871123, "lat": 60.1696669, "lon": 24.9336449, "tags": {"addr:housenumber": "1", "addr:postcode": "00100", "addr:street": "Urho Kekkosen katu", "amenity": "restaurant", "contact:email": "liemi.kamppi@gmail.com", "contact:facebook": "https://www.facebook.com/liemikitchen/", "contact:phone": "+358503100868", "contact:website": "https://www.liemi.fi/", "cuisine": "vietnamese", "level": "5", "lunch": "yes", "lunch:opening_hours": "Mo-Fr 11:00-14:30", "name": "Lie Mi", "opening_hours": "Mo-Fr 11:00-21:00; Sa 12:00-21:00; Su 12:00-18:00", "reservation": "no"}}, {"type": "node", "id": 10116667154, "lat": 60.1631495, "lon": 24.9295998, "tags": {"amenity": "restaurant", "cuisine": "filipino", "diet:halal": "no", "diet:kosher": "no", "name": "Kamalig", "payment:credit_cards": "yes", "payment:debit_cards": "yes"}}, {"type": "way", "id": 28739860, "nodes": [77819321, 316006099, 316006100, 316006101, 316006102, 316006103, 316006104, 316006105, 316006106, 77819321], "tags": {"addr:city": "Helsinki", "addr:housenumber": "14", "addr:postcode": "00180", "addr:street": "Hietalahdenranta", "amenity": "restaurant", "building": "yes", "cuisine": "seafood", "diet:halal": "no", "diet:kosher": "no", "name": "Merimakasiini", "payment:credit_cards": "yes", "payment:debit_cards": "yes", "website": "https://www.merimakasiini.fi/", "wheelchair": "yes"}}, {"type": "way", "id": 559139564, "nodes": [5393393231, 6339908436, 7701337657, 9605317517, 7701337655, 7701337653, 7701337652, 5393393232, 150983567, 7701337650, 7701337645, 7701337646, 150983568, 5393393233, 5393393234, 5393393229, 228461937, 5393393230, 5393393235, 5393393236, 5393393238, 5393393237, 5393393231], "tags": {"addr:city": "Helsinki", "addr:floor": "5", "addr:housenumber": "3", "addr:postcode": "00100", "addr:street": "Kansakoulukuja", "amenity": "restaurant", "building": "yes", "diet:halal": "no", "diet:kosher": "no", "name": "Helsingin Suomalainen Klubi", "payment:credit_cards": "yes", "payment:debit_cards": "yes", "takeaway": "no", "website": "www.klubi.fi", "wheelchair": "no"}}]}